{"type":"FeatureCollection","features":[{"type":"Feature","properties":{"ADM3_EN":"Aborlan","ADM3_PCODE":"PH1705301","psgc_code":"1705301000","AREA_SQKM":771.121276814},"geometry":{"type":"MultiPolygon","coordinates":[[[[118.533,9.5795],[118.6294,9.4786],[118.6152,9.4882],[118.6031,9.4627],[118.5862,9.456],[118.5882,9.4431],[118.5746,9.4426],[118.565,9.4251],[118.5687,9.4167],[118.5617,9.423],[118.563,9.4148],[118.5382,9.3898],[118.5341,9.3734],[118.5443,9.37],[118.5393,9.3576],[118.5276,9.3575],[118.5168,9.3314],[118.5007,9.3231],[118.4787,9.3402],[118.4844,9.3477],[118.4567,9.3813],[118.4319,9.3964],[118.4505,9.4183],[118.4232,9.4332],[118.4229,9.4429],[118.3225,9.4047],[118.2865,9.5497],[118.3311,9.5849],[118.3412,9.6165],[118.3309,9.6323],[118.3407,9.6489],[118.3582,9.6567],[118.3771,9.6459],[118.3909,9.6623],[118.4071,9.6638],[118.409,9.6811],[118.533,9.5795]]],[[[118.6139,9.4308],[118.6095,9.4489],[118.6304,9.4615],[118.6271,9.4369],[118.6195,9.4396],[118.6139,9.4308]]],[[[118.5842,9.375],[118.5798,9.3748],[118.5846,9.3769],[118.5842,9.375]]]]}},{"type":"Feature","properties":{"ADM3_EN":"Agutaya","ADM3_PCODE":"PH1705302","psgc_code":"1705302000","AREA_SQKM":30.9706382152},"geometry":{"type":"MultiPolygon","coordinates":[[[[120.8136,11.4658],[120.813,11.4657],[120.813,11.466],[120.8136,11.4658]]],[[[120.8131,11.4638],[120.8238,11.4581],[120.8192,11.4511],[120.8131,11.4638]]],[[[120.8212,11.4628],[120.8206,11.4639],[120.8217,11.4632],[120.8212,11.4628]]],[[[120.8087,11.4555],[120.8039,11.4552],[120.8074,11.4598],[120.8087,11.4555]]],[[[120.8298,11.45],[120.8531,11.4281],[120.8348,11.4176],[120.822,11.4459],[120.8298,11.45]]],[[[120.8012,11.4463],[120.8017,11.4482],[120.8017,11.4454],[120.8012,11.4463]]],[[[120.7699,11.4454],[120.7796,11.4303],[120.7786,11.426],[120.7689,11.4327],[120.7699,11.4454]]],[[[120.8189,11.4176],[120.8143,11.4111],[120.807,11.4327],[120.8109,11.4366],[120.8189,11.4176]]],[[[120.7627,11.4293],[120.7569,11.4306],[120.757,11.4318],[120.7627,11.4293]]],[[[120.8254,11.427],[120.8229,11.428],[120.8238,11.4298],[120.8254,11.427]]],[[[120.8188,11.4254],[120.8199,11.4246],[120.8187,11.4242],[120.8188,11.4254]]],[[[120.8231,11.4014],[120.8207,11.4007],[120.8217,11.4035],[120.8231,11.4014]]],[[[120.865,11.3692],[120.8659,11.3719],[120.8669,11.3722],[120.865,11.3692]]],[[[120.9344,11.2582],[120.9442,11.2427],[120.93,11.2308],[120.9235,11.243],[120.9344,11.2582]]],[[[120.8528,11.2373],[120.8523,11.243],[120.8545,11.2402],[120.8528,11.2373]]],[[[120.8552,11.2398],[120.8555,11.2403],[120.8556,11.2403],[120.8552,11.2398]]],[[[121.0676,11.2197],[121.0599,11.2218],[121.0607,11.2287],[121.0682,11.2279],[121.0676,11.2197]]],[[[120.9055,11.2037],[120.9065,11.2027],[120.9059,11.2027],[120.9055,11.2037]]],[[[120.9548,11.1321],[120.939,11.1422],[120.9388,11.1544],[120.9835,11.1734],[120.9874,11.1543],[120.9667,11.1341],[120.9548,11.1321]]],[[[121.1438,11.1268],[121.149,11.12],[121.1431,11.118],[121.1408,11.1217],[121.1438,11.1268]]]]}},{"type":"Feature","properties":{"ADM3_EN":"Araceli","ADM3_PCODE":"PH1705303","psgc_code":"1705303000","AREA_SQKM":174.119055809},"geometry":{"type":"MultiPolygon","coordinates":[[[[120.3131,10.7193],[120.3153,10.7167],[120.3127,10.7165],[120.3131,10.7193]]],[[[120.2652,10.7177],[120.2671,10.6956],[120.2562,10.694],[120.2546,10.7128],[120.2652,10.7177]]],[[[120.269,10.6943],[120.272,10.6931],[120.2711,10.6907],[120.269,10.6943]]],[[[120.3317,10.6819],[120.3271,10.6837],[120.3323,10.6829],[120.3317,10.6819]]],[[[120.2475,10.6824],[120.2459,10.6796],[120.2471,10.6826],[120.2475,10.6824]]],[[[120.2467,10.6329],[120.242,10.659],[120.2454,10.6771],[120.2575,10.6334],[120.2467,10.6329]]],[[[119.8947,10.5538],[119.7935,10.5504],[119.791,10.5632],[119.806,10.5663],[119.7967,10.5717],[119.8048,10.5877],[119.8218,10.5946],[119.8242,10.6072],[119.8341,10.6126],[119.8276,10.6525],[119.8402,10.6509],[119.843,10.6373],[119.8549,10.6349],[119.862,10.6194],[119.8689,10.6344],[119.9037,10.6057],[119.904,10.598],[119.9393,10.6078],[119.9447,10.601],[119.9828,10.6],[119.9945,10.5917],[119.9921,10.5742],[120.0032,10.567],[120.0015,10.5522],[119.9862,10.5497],[119.9908,10.5621],[119.9783,10.5699],[119.9803,10.5517],[119.9688,10.5492],[119.9823,10.5424],[119.983,10.5307],[119.9478,10.5187],[119.9449,10.536],[119.9351,10.528],[119.9308,10.5041],[119.9242,10.5185],[119.9105,10.5162],[119.9146,10.5221],[119.9032,10.5337],[119.9059,10.5456],[119.8947,10.5538]]],[[[119.7507,10.5971],[119.7475,10.5882],[119.747,10.5886],[119.7462,10.5903],[119.7507,10.5971]]],[[[119.7474,10.5871],[119.7472,10.5863],[119.7462,10.5868],[119.7474,10.5871]]],[[[120.0095,10.5421],[120.0101,10.5487],[120.0145,10.545],[120.0095,10.5421]]],[[[120.025,10.5379],[120.0242,10.5311],[120.0195,10.5307],[120.019,10.5329],[120.025,10.5379]]],[[[120.0051,10.5161],[120.0087,10.516],[120.0059,10.5144],[120.0051,10.5161]]],[[[119.999,10.4978],[119.9972,10.4891],[119.9924,10.4898],[119.9918,10.4957],[119.999,10.4978]]]]}},{"type":"Feature","properties":{"ADM3_EN":"Balabac","ADM3_PCODE":"PH1705304","psgc_code":"1705304000","AREA_SQKM":559.121296948},"geometry":{"type":"MultiPolygon","coordinates":[[[[117.3109,8.348],[117.3168,8.3468],[117.3106,8.3437],[117.3109,8.348]]],[[[117.5152,8.3415],[117.517,8.3381],[117.5149,8.3377],[117.5152,8.3415]]],[[[117.1783,8.2546],[117.1631,8.2861],[117.1702,8.282],[117.1937,8.2909],[117.2302,8.3386],[117.222,8.3148],[117.2368,8.3155],[117.2341,8.3104],[117.2385,8.3066],[117.2482,8.3176],[117.2586,8.3141],[117.2569,8.2884],[117.2294,8.2666],[117.2024,8.2657],[117.1783,8.2546]]],[[[117.2836,8.1822],[117.2873,8.1883],[117.2921,8.1862],[117.2941,8.1879],[117.2628,8.2095],[117.2717,8.2285],[117.2687,8.229],[117.2653,8.2314],[117.2715,8.2304],[117.2654,8.299],[117.279,8.323],[117.2966,8.3145],[117.3117,8.3304],[117.3394,8.3071],[117.3437,8.3079],[117.3522,8.2908],[117.3422,8.2527],[117.3466,8.2106],[117.3353,8.1946],[117.2944,8.1772],[117.2836,8.1822]]],[[[117.3392,8.311],[117.3414,8.3103],[117.3381,8.3087],[117.3392,8.311]]],[[[117.2347,8.31],[117.2349,8.3105],[117.2355,8.31],[117.2347,8.31]]],[[[117.1841,8.3039],[117.1811,8.3031],[117.1823,8.3087],[117.1841,8.3039]]],[[[117.1432,8.302],[117.1416,8.3039],[117.1424,8.3052],[117.1432,8.302]]],[[[117.1279,8.2849],[117.1205,8.2814],[117.1253,8.2874],[117.1279,8.2849]]],[[[117.1281,8.2189],[117.0839,8.2168],[117.081,8.2483],[117.1169,8.2396],[117.1281,8.2189]]],[[[117.1415,8.2337],[117.1398,8.2346],[117.1408,8.2352],[117.1415,8.2337]]],[[[117.1946,8.1994],[117.1875,8.2004],[117.1875,8.2012],[117.1946,8.1994]]],[[[117.2835,8.1839],[117.2819,8.1851],[117.282,8.1853],[117.2835,8.1839]]],[[[117.284,8.1834],[117.2838,8.1837],[117.2841,8.1841],[117.284,8.1834]]],[[[117.2813,8.1781],[117.2776,8.1823],[117.2809,8.1835],[117.2821,8.1812],[117.2813,8.1781]]],[[[117.2756,8.1799],[117.2759,8.1807],[117.2761,8.1806],[117.2756,8.1799]]],[[[117.0293,8.1712],[117.0149,8.1747],[117.0095,8.1799],[117.0293,8.1712]]],[[[117.2026,8.1518],[117.1485,8.1513],[117.1322,8.1777],[117.1879,8.1795],[117.2041,8.1637],[117.2026,8.1518]]],[[[117.2408,8.1768],[117.2498,8.1758],[117.2574,8.1672],[117.2414,8.1687],[117.2408,8.1768]]],[[[117.2192,8.155],[117.227,8.1635],[117.231,8.1521],[117.2192,8.155]]],[[[117.1446,8.1137],[117.1304,8.1351],[117.1564,8.1137],[117.1446,8.1137]]],[[[117.0219,8.0708],[117.0046,8.0803],[117.0086,8.0928],[116.995,8.0877],[116.9899,8.0977],[117.0162,8.123],[117.034,8.1294],[117.0507,8.1186],[117.0518,8.0994],[117.0626,8.0844],[117.0454,8.0827],[117.0219,8.0708]]],[[[116.9861,8.0781],[116.9858,8.0787],[116.9858,8.0796],[116.9864,8.0813],[116.9836,8.0885],[116.9886,8.0937],[116.9861,8.0781]]],[[[117.1067,8.0925],[117.1091,8.0738],[117.0984,8.0721],[117.1023,8.0894],[117.1067,8.0925]]],[[[117.0736,8.0908],[117.0802,8.084],[117.0788,8.0818],[117.0736,8.0908]]],[[[117.0242,7.8064],[116.9952,7.8094],[116.9926,7.8393],[117.0001,7.8515],[116.9823,7.8538],[116.9676,7.897],[116.9515,7.9181],[116.9349,7.914],[116.9289,7.9363],[116.9433,7.9295],[116.9673,7.952],[116.9583,7.9578],[116.9695,7.9674],[116.9501,7.9985],[116.9599,8.0137],[116.9547,8.0285],[116.9665,8.0542],[116.9737,8.0459],[116.9639,8.0363],[116.9693,8.0154],[117.0041,8.0426],[116.9967,8.0626],[117.0372,8.0639],[117.066,8.08],[117.0806,8.0449],[117.0783,8.0185],[117.0655,8.0147],[117.0783,8.0123],[117.0784,8.0051],[117.0519,7.9909],[117.053,7.9855],[117.0538,7.9846],[117.0548,7.9845],[117.075,7.9915],[117.0863,7.9063],[117.0687,7.8976],[117.0676,7.887],[117.0789,7.8801],[117.0606,7.8421],[117.0419,7.8329],[117.0278,7.8127],[117.0153,7.8228],[117.0242,7.8064]]],[[[117.0414,8.0786],[117.0408,8.078],[117.0411,8.0788],[117.0414,8.0786]]],[[[117.0395,8.0736],[117.0419,8.0736],[117.042,8.0711],[117.0395,8.0736]]],[[[117.014,8.0701],[117.0037,8.0668],[117.0011,8.0688],[117.014,8.0701]]],[[[117.0539,7.9851],[117.0536,7.985],[117.0536,7.9854],[117.0539,7.9851]]],[[[117.2193,7.9161],[117.2228,7.9165],[117.2209,7.9145],[117.2193,7.9161]]],[[[117.0773,7.8727],[117.077,7.8724],[117.077,7.873],[117.0773,7.8727]]],[[[117.2154,7.8308],[117.2241,7.8258],[117.2268,7.8229],[117.2109,7.8231],[117.2154,7.8308]]],[[[117.024,7.8072],[117.0254,7.808],[117.0252,7.8068],[117.024,7.8072]]],[[[117.2982,7.5589],[117.2917,7.5599],[117.2914,7.5606],[117.2927,7.561],[117.2982,7.5589]]],[[[117.3076,7.5228],[117.2999,7.5211],[117.2957,7.5242],[117.3076,7.5228]]],[[[117.3153,7.5094],[117.3073,7.5095],[117.3131,7.5139],[117.3153,7.5094]]]]}},{"type":"Feature","properties":{"ADM3_EN":"Bataraza","ADM3_PCODE":"PH1705305","psgc_code":"1705305000","AREA_SQKM":688.550173253},"geometry":{"type":"MultiPolygon","coordinates":[[[[117.6844,8.6806],[117.6723,8.6685],[117.62,8.6563],[117.589,8.6724],[117.5668,8.6744],[117.5349,8.6429],[117.5387,8.6338],[117.5303,8.6239],[117.546,8.5909],[117.5011,8.5011],[117.4875,8.4939],[117.4794,8.5077],[117.4635,8.5086],[117.4639,8.5207],[117.4557,8.5213],[117.4529,8.5004],[117.4471,8.4939],[117.4495,8.5036],[117.4377,8.4976],[117.4311,8.5081],[117.4261,8.5044],[117.4326,8.4941],[117.4149,8.4999],[117.3993,8.4884],[117.3721,8.4939],[117.3683,8.4753],[117.3586,8.4781],[117.32,8.4532],[117.2898,8.4273],[117.2834,8.4104],[117.2599,8.4059],[117.238,8.3686],[117.2282,8.362],[117.2228,8.3705],[117.2209,8.356],[117.2079,8.3609],[117.2188,8.3503],[117.2073,8.3332],[117.1909,8.33],[117.1752,8.339],[117.181,8.3786],[117.2148,8.4304],[117.2157,8.4583],[117.2094,8.463],[117.2182,8.467],[117.217,8.4855],[117.2615,8.5017],[117.4191,8.6488],[117.5119,8.6877],[117.5395,8.7262],[117.6227,8.7699],[117.6844,8.6806]]],[[[117.43,8.4401],[117.4359,8.439],[117.4294,8.439],[117.43,8.4401]]],[[[117.192,8.4341],[117.1897,8.4325],[117.1915,8.4346],[117.192,8.4341]]],[[[117.2644,8.3962],[117.2689,8.3984],[117.2648,8.3953],[117.2644,8.3962]]],[[[117.261,8.3963],[117.2602,8.3944],[117.2593,8.3944],[117.261,8.3963]]],[[[117.2641,8.3932],[117.2636,8.3903],[117.2613,8.3918],[117.2641,8.3932]]],[[[117.247,8.3777],[117.246,8.3713],[117.2416,8.3676],[117.2413,8.3695],[117.247,8.3777]]],[[[117.2285,8.3608],[117.2399,8.365],[117.2292,8.3585],[117.2285,8.3608]]],[[[117.2255,8.3593],[117.2242,8.3577],[117.2252,8.3596],[117.2255,8.3593]]],[[[117.2226,8.3562],[117.2236,8.3558],[117.2225,8.3553],[117.2226,8.3562]]]]}},{"type":"Feature","properties":{"ADM3_EN":"Brooke's Point","ADM3_PCODE":"PH1705306","psgc_code":"1705306000","AREA_SQKM":684.821988983},"geometry":{"type":"Polygon","coordinates":[[[118.0068,8.9025],[118.0019,8.8793],[117.9898,8.8846],[117.9815,8.8698],[117.964,8.8727],[117.9283,8.8436],[117.9103,8.8447],[117.8845,8.8273],[117.8827,8.8178],[117.8732,8.8175],[117.8621,8.7915],[117.8369,8.7687],[117.8119,8.7708],[117.7793,8.7141],[117.7419,8.687],[117.6844,8.6806],[117.6227,8.7699],[117.683,8.8064],[117.7597,8.9183],[117.8605,8.9955],[117.9007,9.0125],[117.9371,8.9881],[117.9481,8.9934],[117.9692,8.9889],[117.9714,8.9483],[117.9647,8.9377],[117.9754,8.9416],[117.9947,8.93],[117.9934,8.9148],[118.0068,8.9025]]]}},{"type":"Feature","properties":{"ADM3_EN":"Busuanga","ADM3_PCODE":"PH1705307","psgc_code":"1705307000","AREA_SQKM":404.538769295},"geometry":{"type":"MultiPolygon","coordinates":[[[[119.8987,12.3819],[119.8991,12.3803],[119.8981,12.3807],[119.8987,12.3819]]],[[[119.9015,12.3593],[119.9032,12.3695],[119.9159,12.368],[119.9015,12.3593]]],[[[119.9544,12.3394],[119.9564,12.3441],[119.9585,12.3447],[119.9544,12.3394]]],[[[120.0627,12.1902],[120.0041,12.1363],[120.0281,12.0842],[120.0423,12.0791],[120.0172,11.9983],[120.0138,12.0054],[119.9959,12.0013],[119.9761,12.0127],[119.9829,12.0128],[119.9798,12.0216],[119.9863,12.0271],[119.9927,12.0196],[119.9971,12.0233],[119.9858,12.0313],[119.9722,12.0241],[119.9692,12.0651],[119.9626,12.0631],[119.9622,12.0627],[119.9617,12.0609],[119.9589,12.0575],[119.9543,12.0597],[119.9531,12.0551],[119.9378,12.0731],[119.9515,12.0789],[119.933,12.0872],[119.9319,12.1378],[119.924,12.1369],[119.9206,12.1519],[119.9002,12.1632],[119.9056,12.1808],[119.8965,12.2027],[119.879,12.2024],[119.8576,12.1669],[119.8632,12.1619],[119.8528,12.1469],[119.848,12.1746],[119.8756,12.2234],[119.8638,12.2367],[119.8586,12.2325],[119.8607,12.2554],[119.9172,12.2732],[119.894,12.2765],[119.8696,12.2659],[119.869,12.2773],[119.8808,12.2884],[119.867,12.2901],[119.8733,12.2929],[119.8642,12.3105],[119.8803,12.3277],[119.8948,12.3297],[119.9261,12.3182],[119.9233,12.2983],[119.9399,12.2828],[119.9244,12.2765],[119.9279,12.2716],[119.9492,12.2643],[119.9738,12.2714],[119.9835,12.2594],[120.0149,12.2539],[120.0203,12.2406],[120.0486,12.2274],[120.0627,12.1902]]],[[[119.8491,12.3265],[119.8497,12.3255],[119.8489,12.3261],[119.8491,12.3265]]],[[[120.0901,12.2718],[120.0907,12.2707],[120.0891,12.2717],[120.0901,12.2718]]],[[[120.0984,12.2672],[120.0911,12.2703],[120.0913,12.2707],[120.0984,12.2672]]],[[[119.8612,12.2583],[119.8603,12.2584],[119.8617,12.2591],[119.8612,12.2583]]],[[[119.8535,12.2485],[119.8521,12.2485],[119.8542,12.2517],[119.8535,12.2485]]],[[[119.854,12.2428],[119.8459,12.2412],[119.8543,12.2448],[119.854,12.2428]]],[[[120.0457,12.243],[120.0478,12.2363],[120.0473,12.2359],[120.0453,12.2421],[120.0457,12.243]]],[[[120.0502,12.2325],[120.0497,12.2302],[120.0485,12.2311],[120.0502,12.2325]]],[[[119.8779,12.1869],[119.8777,12.1851],[119.8775,12.1852],[119.8779,12.1869]]],[[[119.8803,12.1679],[119.8748,12.1717],[119.877,12.1829],[119.8822,12.1744],[119.8803,12.1679]]],[[[119.8611,12.1231],[119.865,12.1414],[119.871,12.1687],[119.8743,12.1199],[119.8611,12.1231]]],[[[119.814,12.1443],[119.8137,12.1595],[119.8188,12.1614],[119.8195,12.1564],[119.814,12.1443]]],[[[119.8765,12.1579],[119.8811,12.1592],[119.8815,12.1574],[119.8765,12.1579]]],[[[119.8813,12.1366],[119.8869,12.1357],[119.8861,12.1301],[119.8813,12.1366]]],[[[119.8556,12.1144],[119.8443,12.1145],[119.845,12.1331],[119.8556,12.1144]]],[[[119.9175,12.1262],[119.9217,12.1311],[119.9212,12.1253],[119.9175,12.1262]]],[[[119.8753,12.125],[119.876,12.1249],[119.8758,12.1247],[119.8753,12.125]]],[[[119.8753,12.1177],[119.8737,12.1181],[119.8742,12.1194],[119.8753,12.1177]]],[[[119.8687,12.1159],[119.8683,12.1155],[119.8681,12.1161],[119.8687,12.1159]]],[[[119.8739,12.1153],[119.8737,12.1158],[119.8738,12.1159],[119.8739,12.1153]]],[[[119.8518,12.1071],[119.8478,12.1024],[119.8458,12.1073],[119.8518,12.1071]]],[[[119.8764,12.0823],[119.8741,12.0833],[119.8767,12.0828],[119.8764,12.0823]]],[[[119.8351,12.0749],[119.8353,12.0731],[119.8341,12.0737],[119.8351,12.0749]]],[[[119.8794,12.0655],[119.8765,12.0657],[119.8765,12.0662],[119.8794,12.0655]]],[[[119.9631,12.0619],[119.9622,12.0621],[119.9625,12.063],[119.9631,12.0619]]],[[[119.9644,12.061],[119.9639,12.0607],[119.964,12.0611],[119.9644,12.061]]],[[[119.792,12.0591],[119.7893,12.0523],[119.7846,12.0513],[119.792,12.0591]]],[[[119.8776,12.0578],[119.88,12.0576],[119.8773,12.0571],[119.8776,12.0578]]],[[[119.8992,12.0561],[119.9041,12.0543],[119.9045,12.0534],[119.9018,12.0513],[119.8992,12.0561]]],[[[119.9541,12.0534],[119.9607,12.052],[119.9599,12.0462],[119.9553,12.0456],[119.9541,12.0534]]],[[[119.9033,12.0482],[119.8912,12.045],[119.9016,12.0513],[119.9033,12.0482]]],[[[119.8801,12.0469],[119.8675,12.0465],[119.8641,12.0485],[119.8801,12.0469]]],[[[119.9039,12.048],[119.9053,12.0468],[119.9053,12.0462],[119.9039,12.048]]],[[[119.9101,12.0188],[119.9086,12.0298],[119.9065,12.0372],[119.916,12.0244],[119.9101,12.0188]]],[[[119.9419,12.0167],[119.9527,12.0302],[119.9505,12.0223],[119.9419,12.0167]]],[[[119.9216,12.0225],[119.9174,12.0175],[119.9194,12.0306],[119.9216,12.0225]]],[[[119.9132,12.0289],[119.9137,12.0286],[119.9136,12.0286],[119.9132,12.0289]]],[[[119.98,12.0268],[119.9799,12.025],[119.9796,12.0268],[119.98,12.0268]]],[[[119.888,12.0159],[119.8883,12.0259],[119.8922,12.026],[119.8951,12.0208],[119.888,12.0159]]],[[[119.8986,12.0152],[119.8946,12.018],[119.8993,12.0184],[119.8986,12.0152]]],[[[119.8772,12.0117],[119.8821,12.0151],[119.8851,12.0125],[119.8842,12.0087],[119.8772,12.0117]]],[[[119.9404,12.0106],[119.9429,12.0106],[119.9419,12.007],[119.9404,12.0106]]],[[[119.8677,12.0116],[119.8674,12.0117],[119.8677,12.0117],[119.8677,12.0116]]],[[[119.8709,12.0108],[119.869,12.0097],[119.8663,12.0102],[119.8709,12.0108]]],[[[119.8847,12.0082],[119.8867,12.0048],[119.8833,12.0059],[119.8847,12.0082]]],[[[119.8359,11.9882],[119.8393,12.0004],[119.863,11.9995],[119.8735,11.9938],[119.8555,11.9987],[119.8534,11.9977],[119.8523,11.9897],[119.8359,11.9882]]],[[[119.854,11.9976],[119.8539,11.9972],[119.8538,11.9977],[119.854,11.9976]]],[[[119.8539,11.9971],[119.8538,11.9971],[119.8538,11.9973],[119.8539,11.9971]]],[[[119.8875,11.9818],[119.8818,11.9868],[119.8885,11.9833],[119.8875,11.9818]]],[[[119.8328,11.983],[119.8298,11.9825],[119.8323,11.9839],[119.8328,11.983]]],[[[119.8326,11.9806],[119.832,11.9814],[119.8329,11.9819],[119.8326,11.9806]]]]}},{"type":"Feature","properties":{"ADM3_EN":"Cagayancillo","ADM3_PCODE":"PH1705308","psgc_code":"1705308000","AREA_SQKM":12.3065735808},"geometry":{"type":"MultiPolygon","coordinates":[[[[121.2394,9.663],[121.2392,9.6628],[121.2391,9.663],[121.2394,9.663]]],[[[121.2329,9.6484],[121.231,9.6458],[121.2385,9.6622],[121.2386,9.6507],[121.2329,9.6484]]],[[[121.2375,9.6487],[121.2369,9.6491],[121.2374,9.6491],[121.2375,9.6487]]],[[[121.2358,9.6456],[121.2337,9.6481],[121.2361,9.6487],[121.2358,9.6456]]],[[[121.2296,9.6468],[121.23,9.6469],[121.2299,9.6468],[121.2296,9.6468]]],[[[121.2362,9.6468],[121.2365,9.6468],[121.2364,9.6466],[121.2362,9.6468]]],[[[121.2365,9.6464],[121.2366,9.6463],[121.2364,9.6465],[121.2365,9.6464]]],[[[121.2297,9.646],[121.2295,9.6458],[121.2294,9.6458],[121.2297,9.646]]],[[[121.2295,9.6452],[121.2292,9.6452],[121.2294,9.6454],[121.2295,9.6452]]],[[[121.2289,9.645],[121.2291,9.6448],[121.229,9.6448],[121.2289,9.645]]],[[[121.1889,9.5672],[121.182,9.5704],[121.1858,9.5777],[121.2226,9.6063],[121.2243,9.6383],[121.2306,9.645],[121.2252,9.6228],[121.2264,9.6151],[121.2301,9.6129],[121.2211,9.591],[121.232,9.591],[121.2228,9.5868],[121.2131,9.5924],[121.1889,9.5672]]],[[[121.2291,9.6447],[121.2291,9.6445],[121.229,9.6446],[121.2291,9.6447]]],[[[121.2295,9.6357],[121.2292,9.6356],[121.2294,9.6362],[121.2295,9.6357]]],[[[121.2302,9.6361],[121.2307,9.6359],[121.2304,9.6358],[121.2302,9.6361]]],[[[121.2301,9.6328],[121.2302,9.6333],[121.2303,9.6328],[121.2301,9.6328]]],[[[121.2297,9.6316],[121.2295,9.6319],[121.2297,9.6322],[121.2297,9.6316]]],[[[121.2302,9.6312],[121.2298,9.6313],[121.2299,9.6315],[121.2302,9.6312]]],[[[121.2271,9.6278],[121.2275,9.6281],[121.2275,9.6278],[121.2271,9.6278]]],[[[121.2276,9.6258],[121.2282,9.626],[121.2276,9.6256],[121.2276,9.6258]]],[[[121.2903,9.6254],[121.291,9.6261],[121.2903,9.6247],[121.2903,9.6254]]],[[[121.2276,9.625],[121.2274,9.6247],[121.2271,9.6247],[121.2276,9.625]]],[[[121.2267,9.6243],[121.2272,9.624],[121.2271,9.6239],[121.2267,9.6243]]],[[[121.2806,9.623],[121.2676,9.6075],[121.2501,9.5959],[121.2408,9.5911],[121.2385,9.592],[121.2806,9.623]]],[[[121.2274,9.6189],[121.2271,9.6193],[121.2274,9.6198],[121.2274,9.6189]]],[[[121.2273,9.6185],[121.2267,9.618],[121.2267,9.6188],[121.2273,9.6185]]],[[[121.2282,9.6172],[121.2278,9.6176],[121.2282,9.6177],[121.2282,9.6172]]],[[[121.2282,9.6167],[121.2274,9.6159],[121.2273,9.6161],[121.2274,9.6165],[121.2282,9.6167]]],[[[121.0196,9.6098],[121.0028,9.6091],[121.0028,9.6134],[121.0196,9.6098]]],[[[121.229,9.6023],[121.2283,9.6018],[121.2281,9.6019],[121.229,9.6023]]],[[[121.2317,9.6012],[121.2322,9.6006],[121.2317,9.6006],[121.2317,9.6012]]],[[[121.2194,9.5881],[121.2195,9.588],[121.2194,9.588],[121.2194,9.5881]]],[[[121.2191,9.5877],[121.219,9.5879],[121.2192,9.5877],[121.2191,9.5877]]],[[[121.216,9.5871],[121.2136,9.5872],[121.2172,9.5876],[121.216,9.5871]]],[[[121.2173,9.5875],[121.2181,9.5876],[121.2183,9.5875],[121.2173,9.5875]]],[[[121.1943,9.5663],[121.194,9.5666],[121.1944,9.5665],[121.1943,9.5663]]],[[[120.8242,9.2802],[120.8069,9.2758],[120.8245,9.2815],[120.8242,9.2802]]]]}},{"type":"Feature","properties":{"ADM3_EN":"Coron","ADM3_PCODE":"PH1705309","psgc_code":"1705309000","AREA_SQKM":694.366521338},"geometry":{"type":"MultiPolygon","coordinates":[[[[120.2713,12.3468],[120.2628,12.3474],[120.2618,12.3538],[120.2713,12.3468]]],[[[120.2716,12.3419],[120.2713,12.342],[120.2716,12.342],[120.2716,12.3419]]],[[[120.2706,12.3401],[120.2708,12.3393],[120.2706,12.3393],[120.2706,12.3401]]],[[[120.2773,12.3311],[120.2706,12.331],[120.272,12.3358],[120.2773,12.3311]]],[[[120.2698,12.3342],[120.27,12.3345],[120.2701,12.3343],[120.2698,12.3342]]],[[[120.3752,12.2632],[120.3695,12.2601],[120.3682,12.2618],[120.3648,12.2688],[120.3609,12.2728],[120.3641,12.2806],[120.3465,12.3029],[120.3475,12.3076],[120.3684,12.2963],[120.3752,12.2632]]],[[[120.3436,12.3047],[120.3421,12.3048],[120.3418,12.3067],[120.3436,12.3047]]],[[[120.3589,12.3059],[120.3585,12.3058],[120.3586,12.3062],[120.3589,12.3059]]],[[[120.2634,12.2993],[120.2597,12.2975],[120.2593,12.2983],[120.2634,12.2993]]],[[[120.3529,12.2884],[120.3529,12.2877],[120.3515,12.2894],[120.3529,12.2884]]],[[[120.3651,12.242],[120.3574,12.254],[120.3582,12.2551],[120.3596,12.2548],[120.3651,12.242]]],[[[120.0907,12.2342],[120.0854,12.2362],[120.087,12.2378],[120.0907,12.2342]]],[[[120.3953,12.2094],[120.3845,12.2319],[120.3948,12.2337],[120.3953,12.2094]]],[[[120.1033,12.2283],[120.1051,12.2271],[120.1045,12.2261],[120.1033,12.2283]]],[[[120.0172,11.9983],[120.0423,12.0791],[120.0281,12.0842],[120.0041,12.1363],[120.0602,12.1904],[120.0762,12.189],[120.0875,12.2034],[120.1103,12.193],[120.1086,12.1871],[120.0901,12.1911],[120.0991,12.1822],[120.0919,12.1826],[120.096,12.1785],[120.0874,12.1762],[120.0857,12.1702],[120.0982,12.1769],[120.1273,12.1475],[120.1476,12.141],[120.1412,12.1341],[120.1489,12.1275],[120.1476,12.136],[120.1635,12.119],[120.1852,12.1166],[120.1906,12.1236],[120.1796,12.133],[120.1895,12.1324],[120.1876,12.1373],[120.2098,12.1301],[120.2154,12.1365],[120.2056,12.162],[120.2193,12.1973],[120.2055,12.2198],[120.2174,12.2265],[120.2235,12.1983],[120.2427,12.2001],[120.2385,12.1803],[120.2511,12.1511],[120.2416,12.1503],[120.2525,12.1439],[120.2463,12.131],[120.26,12.1246],[120.2587,12.1303],[120.266,12.1308],[120.2701,12.1345],[120.2708,12.1398],[120.2731,12.1438],[120.2738,12.1443],[120.2745,12.1441],[120.2872,12.1137],[120.3049,12.1173],[120.3015,12.1055],[120.3075,12.0979],[120.3328,12.0916],[120.3262,12.0811],[120.341,12.0577],[120.3325,12.0427],[120.3154,12.0444],[120.3067,12.0289],[120.3251,12.0378],[120.3303,12.0166],[120.3338,12.022],[120.3405,12.0127],[120.331,12.001],[120.3359,11.9924],[120.3234,11.9999],[120.3172,11.9999],[120.3163,12.0003],[120.3167,12.0011],[120.3162,12.0013],[120.3159,12.0013],[120.2998,11.9937],[120.3006,11.9814],[120.2638,12.0074],[120.233,11.9952],[120.2244,11.9822],[120.2113,11.9978],[120.2059,11.9938],[120.1885,12.0067],[120.1853,12.008],[120.1776,12.0081],[120.1765,12.024],[120.1625,12.0324],[120.1574,12.0209],[120.132,12.0327],[120.1246,12.029],[120.124,12.0181],[120.1375,12.003],[120.1286,12.003],[120.1268,11.9909],[120.1144,11.9888],[120.1042,12.0026],[120.0957,12.0027],[120.1064,11.9831],[120.1126,11.9783],[120.1164,11.9864],[120.1193,11.9779],[120.1036,11.9724],[120.0998,11.9604],[120.0923,11.9742],[120.0804,11.9859],[120.0888,11.9981],[120.0528,12.0202],[120.0583,12.0075],[120.0484,12.006],[120.0445,11.9925],[120.0366,11.9978],[120.0205,11.9879],[120.0172,11.9983]]],[[[120.3813,12.2245],[120.3825,12.2239],[120.3819,12.2235],[120.3813,12.2245]]],[[[120.2046,12.2199],[120.2053,12.2197],[120.2046,12.2197],[120.2046,12.2199]]],[[[120.2435,12.2072],[120.2403,12.2111],[120.2406,12.2147],[120.2435,12.2072]]],[[[120.1305,12.2059],[120.1314,12.2066],[120.1315,12.206],[120.1305,12.2059]]],[[[120.394,12.207],[120.4005,12.1948],[120.4003,12.195],[120.3999,12.195],[120.3961,12.2003],[120.394,12.207]]],[[[120.1337,12.2031],[120.1342,12.2031],[120.1341,12.203],[120.1337,12.2031]]],[[[120.1354,12.2027],[120.1359,12.2027],[120.1359,12.2022],[120.1354,12.2027]]],[[[120.2423,12.2027],[120.242,12.2024],[120.2412,12.2024],[120.2423,12.2027]]],[[[120.136,12.202],[120.1361,12.2021],[120.1361,12.202],[120.136,12.202]]],[[[120.1384,12.1994],[120.1766,12.1616],[120.1915,12.1607],[120.2009,12.1471],[120.1941,12.143],[120.1967,12.1488],[120.1479,12.1751],[120.1501,12.1866],[120.1384,12.1994]]],[[[120.3878,12.1878],[120.3861,12.1861],[120.3847,12.1894],[120.3878,12.1878]]],[[[120.1327,12.1866],[120.1334,12.1832],[120.1305,12.1875],[120.1327,12.1866]]],[[[120.253,12.1595],[120.2479,12.1763],[120.2524,12.1838],[120.257,12.1728],[120.253,12.1595]]],[[[120.1457,12.182],[120.145,12.1817],[120.1453,12.1823],[120.1457,12.182]]],[[[120.1522,12.1693],[120.1499,12.1636],[120.1487,12.1675],[120.1522,12.1693]]],[[[120.3909,12.1625],[120.3909,12.1635],[120.3917,12.1625],[120.3909,12.1625]]],[[[120.3955,12.1603],[120.3939,12.1595],[120.3929,12.1611],[120.3955,12.1603]]],[[[120.1729,12.1564],[120.1638,12.1546],[120.1633,12.1606],[120.1729,12.1564]]],[[[120.251,12.1575],[120.2496,12.1565],[120.2504,12.1591],[120.251,12.1575]]],[[[120.2648,12.1547],[120.2593,12.1426],[120.2565,12.1426],[120.2537,12.1566],[120.2648,12.1547]]],[[[120.2674,12.1551],[120.2651,12.1564],[120.2671,12.156],[120.2674,12.1551]]],[[[120.2096,12.1511],[120.2091,12.1521],[120.2093,12.1519],[120.2096,12.1511]]],[[[120.189,12.1478],[120.188,12.1474],[120.1871,12.149],[120.189,12.1478]]],[[[120.159,12.1451],[120.1627,12.141],[120.1565,12.1469],[120.159,12.1451]]],[[[120.1827,12.1374],[120.18,12.14],[120.1841,12.1391],[120.1827,12.1374]]],[[[120.3009,12.1192],[120.3015,12.1191],[120.3013,12.1188],[120.3009,12.1192]]],[[[120.3107,12.1043],[120.3063,12.1037],[120.3113,12.1059],[120.3107,12.1043]]],[[[120.3377,12.0791],[120.3365,12.0763],[120.3365,12.0787],[120.3377,12.0791]]],[[[120.359,12.0282],[120.3535,12.0386],[120.3556,12.0436],[120.3573,12.0436],[120.359,12.0282]]],[[[120.1254,12.0286],[120.1248,12.0286],[120.125,12.0288],[120.1254,12.0286]]],[[[120.1539,12.0221],[120.1545,12.0217],[120.1538,12.0217],[120.1539,12.0221]]],[[[120.1782,11.996],[120.1577,12.0059],[120.146,12.0199],[120.1827,12.0026],[120.1782,11.996]]],[[[120.1856,12.0062],[120.1846,12.0074],[120.1858,12.0071],[120.1856,12.0062]]],[[[120.1899,11.9996],[120.1924,11.9999],[120.1924,11.9991],[120.1899,11.9996]]],[[[120.0822,11.9998],[120.0808,12.0001],[120.0817,12.0007],[120.0822,11.9998]]],[[[120.1442,11.9961],[120.1426,11.994],[120.1408,12],[120.1442,11.9961]]],[[[120.2103,11.9963],[120.2098,11.9954],[120.2096,11.996],[120.2103,11.9963]]],[[[120.066,11.9624],[120.0609,11.9955],[120.075,11.9842],[120.0846,11.9585],[120.0713,11.9638],[120.066,11.9624]]],[[[120.3849,11.9949],[120.3819,11.9907],[120.3831,11.9949],[120.3849,11.9949]]],[[[120.1857,11.9658],[120.1715,11.9754],[120.1785,11.9795],[120.1774,11.9822],[120.1582,11.9678],[120.1541,11.9754],[120.1397,11.9698],[120.1306,11.9748],[120.1303,11.9858],[120.136,11.9858],[120.1334,11.9923],[120.1473,11.9847],[120.1662,11.9824],[120.1878,11.992],[120.1978,11.9774],[120.1937,11.9732],[120.2,11.9754],[120.1857,11.9658]]],[[[120.1702,11.9882],[120.1723,11.9887],[120.1698,11.9877],[120.1702,11.9882]]],[[[120.152,11.9881],[120.1527,11.9857],[120.1519,11.9867],[120.152,11.9881]]],[[[120.0113,11.9839],[120.0196,11.9871],[120.0272,11.9729],[120.0222,11.9716],[120.0113,11.9839]]],[[[120.2582,11.8917],[120.2586,11.8586],[120.2462,11.8481],[120.2541,11.843],[120.2596,11.8161],[120.2662,11.8231],[120.2622,11.8073],[120.2367,11.8467],[120.2243,11.8924],[120.1916,11.9368],[120.1928,11.953],[120.2027,11.943],[120.2092,11.9449],[120.2119,11.9542],[120.2137,11.9535],[120.2173,11.958],[120.22,11.9573],[120.2235,11.9617],[120.2262,11.9592],[120.2474,11.976],[120.2451,11.9872],[120.2719,11.9691],[120.2665,11.9623],[120.2666,11.9555],[120.2767,11.9358],[120.2768,11.926],[120.2628,11.914],[120.2541,11.9189],[120.2493,11.9096],[120.2582,11.8917]]],[[[120.1619,11.9853],[120.1634,11.9862],[120.1641,11.9854],[120.1619,11.9853]]],[[[120.2295,11.9857],[120.2294,11.9855],[120.2294,11.9857],[120.2295,11.9857]]],[[[120.2317,11.9852],[120.2312,11.9854],[120.2313,11.9855],[120.2317,11.9852]]],[[[120.2326,11.9852],[120.2321,11.9852],[120.2322,11.9854],[120.2326,11.9852]]],[[[120.2298,11.9853],[120.2296,11.9848],[120.2295,11.9851],[120.2298,11.9853]]],[[[120.23,11.9842],[120.2297,11.9837],[120.2297,11.9843],[120.23,11.9842]]],[[[120.1968,11.9802],[120.2012,11.9825],[120.2009,11.9799],[120.1968,11.9802]]],[[[120.1253,11.9811],[120.1202,11.9814],[120.1225,11.9837],[120.1253,11.9811]]],[[[120.2311,11.9835],[120.2302,11.9829],[120.23,11.9836],[120.2311,11.9835]]],[[[120.2373,11.9813],[120.2388,11.981],[120.2387,11.9806],[120.2373,11.9813]]],[[[120.0855,11.9796],[120.0858,11.9797],[120.0857,11.9795],[120.0855,11.9796]]],[[[120.086,11.9793],[120.0862,11.9795],[120.0862,11.979],[120.086,11.9793]]],[[[120.3055,11.9781],[120.3053,11.9771],[120.3049,11.9781],[120.3055,11.9781]]],[[[120.3063,11.9761],[120.3061,11.9751],[120.3057,11.9761],[120.3063,11.9761]]],[[[120.1498,11.9728],[120.1509,11.9706],[120.1497,11.9707],[120.1498,11.9728]]],[[[120.1507,11.9732],[120.1499,11.973],[120.1509,11.9735],[120.1507,11.9732]]],[[[120.0919,11.9734],[120.0923,11.972],[120.0914,11.9734],[120.0919,11.9734]]],[[[120.3145,11.9645],[120.3189,11.9647],[120.3187,11.9625],[120.3145,11.9645]]],[[[120.2291,11.9661],[120.2292,11.9666],[120.2294,11.9665],[120.2291,11.9661]]],[[[120.1807,11.9639],[120.1804,11.9629],[120.1795,11.9633],[120.1807,11.9639]]],[[[120.0707,11.9631],[120.0707,11.9626],[120.0704,11.9632],[120.0707,11.9631]]],[[[120.1566,11.9595],[120.1682,11.9627],[120.1689,11.9618],[120.1651,11.9561],[120.1566,11.9595]]],[[[120.225,11.962],[120.2271,11.9623],[120.2259,11.9608],[120.225,11.962]]],[[[120.2274,11.9622],[120.2277,11.9623],[120.2277,11.9621],[120.2274,11.9622]]],[[[120.1091,11.9551],[120.1036,11.9624],[120.1086,11.9581],[120.1091,11.9551]]],[[[120.2668,11.9582],[120.2669,11.9584],[120.2671,11.9583],[120.2668,11.9582]]],[[[120.0869,11.9575],[120.0858,11.9572],[120.085,11.9581],[120.0869,11.9575]]],[[[120.2747,11.9559],[120.2757,11.9573],[120.2761,11.9561],[120.2747,11.9559]]],[[[120.2769,11.9541],[120.2769,11.9561],[120.2781,11.9565],[120.2769,11.9541]]],[[[120.2125,11.9548],[120.2132,11.955],[120.2132,11.9544],[120.2125,11.9548]]],[[[120.2056,11.9474],[120.207,11.9489],[120.2077,11.9485],[120.2056,11.9474]]],[[[120.2028,11.9448],[120.2037,11.9468],[120.204,11.9445],[120.2028,11.9448]]],[[[120.0676,11.9162],[120.0432,11.9174],[120.0338,11.9289],[120.0548,11.9331],[120.069,11.923],[120.0676,11.9162]]],[[[120.3121,11.826],[120.3049,11.8374],[120.3167,11.8513],[120.3215,11.8492],[120.3171,11.8448],[120.3121,11.826]]],[[[120.3214,11.8473],[120.3216,11.8476],[120.3216,11.8473],[120.3214,11.8473]]],[[[120.3201,11.8442],[120.3213,11.8443],[120.321,11.8412],[120.3201,11.8442]]],[[[120.244,11.8332],[120.2442,11.8335],[120.2442,11.8332],[120.244,11.8332]]],[[[120.3126,11.8208],[120.3128,11.8213],[120.313,11.8206],[120.3126,11.8208]]],[[[120.1347,11.7842],[120.1342,11.7851],[120.135,11.7853],[120.1347,11.7842]]],[[[120.1668,11.7818],[120.1945,11.7746],[120.1974,11.751],[120.1832,11.752],[120.1746,11.742],[120.152,11.7535],[120.1387,11.752],[120.1448,11.7564],[120.1347,11.7646],[120.1343,11.7802],[120.1448,11.7629],[120.1548,11.7718],[120.1575,11.7631],[120.1606,11.7684],[120.1645,11.7609],[120.1776,11.7621],[120.1784,11.7601],[120.1757,11.7588],[120.1763,11.7577],[120.1751,11.7568],[120.1752,11.7539],[120.1889,11.757],[120.1778,11.7721],[120.1831,11.7708],[120.1847,11.7733],[120.1668,11.7818]]],[[[120.1343,11.7803],[120.1344,11.7831],[120.1349,11.7813],[120.1343,11.7803]]],[[[120.1748,11.7751],[120.1762,11.7751],[120.1758,11.7743],[120.1748,11.7751]]],[[[120.1252,11.7715],[120.1288,11.7713],[120.1257,11.7696],[120.1252,11.7715]]],[[[120.167,11.771],[120.1662,11.7703],[120.1662,11.7717],[120.167,11.771]]],[[[120.2189,11.7683],[120.2256,11.7671],[120.219,11.7675],[120.2189,11.7683]]],[[[120.1738,11.7383],[120.175,11.7373],[120.1733,11.7372],[120.1738,11.7383]]],[[[120.1053,11.7255],[120.1068,11.7317],[120.1081,11.7321],[120.1089,11.7297],[120.1053,11.7255]]],[[[120.1545,11.7176],[120.1533,11.7268],[120.1555,11.7298],[120.1575,11.7271],[120.1545,11.7176]]],[[[120.2051,11.7052],[120.2038,11.706],[120.2054,11.7059],[120.2051,11.7052]]],[[[120.1491,11.6924],[120.146,11.6832],[120.1418,11.6824],[120.1393,11.6896],[120.1491,11.6924]]],[[[120.1354,11.6785],[120.1371,11.6807],[120.1364,11.6777],[120.1354,11.6785]]],[[[120.108,11.6471],[120.1069,11.6627],[120.1082,11.6647],[120.1227,11.6566],[120.108,11.6471]]]]}},{"type":"Feature","properties":{"ADM3_EN":"Cuyo","ADM3_PCODE":"PH1705310","psgc_code":"1705310000","AREA_SQKM":42.7923577295},"geometry":{"type":"MultiPolygon","coordinates":[[[[120.7399,11.3462],[120.7208,11.3557],[120.7221,11.3624],[120.7399,11.3462]]],[[[120.6848,11.3205],[120.6964,11.3181],[120.6935,11.3059],[120.6992,11.3025],[120.689,11.2902],[120.6744,11.3007],[120.6858,11.296],[120.6813,11.3053],[120.6715,11.3047],[120.6848,11.3205]]],[[[120.7597,11.2117],[120.7532,11.2191],[120.7624,11.2161],[120.7597,11.2117]]],[[[120.6873,11.2129],[120.6877,11.2088],[120.687,11.2086],[120.6873,11.2129]]],[[[120.6944,11.1024],[120.6975,11.1038],[120.6975,11.1024],[120.6944,11.1024]]],[[[120.8657,11.0394],[120.8712,11.0417],[120.8722,11.0389],[120.8657,11.0394]]],[[[120.7719,11.0055],[120.7736,10.9996],[120.7638,10.9977],[120.7719,11.0055]]],[[[120.7188,10.9637],[120.7227,10.9716],[120.7341,10.9659],[120.7263,10.9532],[120.7188,10.9637]]],[[[120.9373,10.8732],[120.9371,10.8767],[120.9407,10.8739],[120.9373,10.8732]]],[[[121.045,10.8092],[121.0395,10.7986],[121.0222,10.8],[121.0133,10.8044],[121.0046,10.8276],[120.9945,10.8298],[121.0073,10.8431],[121.0047,10.8571],[121.0326,10.8717],[121.0402,10.8601],[121.0305,10.8489],[121.0307,10.8318],[121.045,10.8092]]],[[[120.9723,10.8085],[120.958,10.8213],[120.9827,10.8293],[120.9858,10.812],[120.9723,10.8085]]],[[[120.8864,10.8157],[120.8836,10.8159],[120.8845,10.8171],[120.8864,10.8157]]],[[[121.0699,10.7539],[121.0627,10.7512],[121.0617,10.756],[121.0649,10.757],[121.0699,10.7539]]],[[[120.9019,10.7224],[120.8937,10.7391],[120.9033,10.739],[120.9094,10.7297],[120.9019,10.7224]]],[[[120.7952,10.7256],[120.7942,10.7203],[120.7893,10.7273],[120.7952,10.7256]]],[[[120.7741,10.7225],[120.7747,10.7215],[120.7741,10.7217],[120.7741,10.7225]]],[[[120.7729,10.7189],[120.7745,10.7199],[120.7735,10.7179],[120.7729,10.7189]]],[[[120.888,10.7071],[120.8908,10.7071],[120.8909,10.7045],[120.888,10.7071]]],[[[120.9631,10.7024],[120.9658,10.7041],[120.9645,10.7019],[120.9631,10.7024]]],[[[120.8879,10.6932],[120.886,10.6941],[120.887,10.695],[120.8879,10.6932]]]]}},{"type":"Feature","properties":{"ADM3_EN":"Dumaran","ADM3_PCODE":"PH1705311","psgc_code":"1705311000","AREA_SQKM":526.175003484},"geometry":{"type":"MultiPolygon","coordinates":[[[[119.6238,10.6604],[119.6237,10.6593],[119.6226,10.6593],[119.6238,10.6604]]],[[[119.569,10.3729],[119.5502,10.4124],[119.5828,10.4278],[119.5865,10.439],[119.5724,10.4362],[119.5681,10.4515],[119.5745,10.4579],[119.5564,10.4839],[119.5518,10.5096],[119.5194,10.5015],[119.5077,10.485],[119.4948,10.4838],[119.4449,10.534],[119.5047,10.5582],[119.5357,10.6029],[119.5693,10.6248],[119.5754,10.6188],[119.6225,10.6592],[119.6398,10.6345],[119.625,10.6222],[119.6397,10.6227],[119.6407,10.6041],[119.6548,10.6076],[119.6618,10.5607],[119.6739,10.5563],[119.6695,10.5442],[119.7029,10.5422],[119.6927,10.5282],[119.6958,10.5202],[119.7075,10.5321],[119.7188,10.5166],[119.7002,10.4937],[119.6946,10.5024],[119.6767,10.4925],[119.6322,10.4435],[119.5867,10.4225],[119.569,10.3729]]],[[[119.7428,10.5825],[119.7495,10.5816],[119.7456,10.5741],[119.7428,10.5825]]],[[[119.7124,10.5731],[119.7111,10.5732],[119.7127,10.5737],[119.7124,10.5731]]],[[[119.7423,10.5658],[119.7474,10.5608],[119.7406,10.5574],[119.7404,10.5585],[119.7423,10.5658]]],[[[119.7183,10.5611],[119.7183,10.5652],[119.7221,10.5657],[119.7183,10.5611]]],[[[119.791,10.5459],[119.8986,10.5427],[119.8957,10.5207],[119.9053,10.5216],[119.9038,10.5085],[119.924,10.4833],[119.9126,10.4746],[119.9028,10.4836],[119.8893,10.478],[119.8558,10.4852],[119.8651,10.4696],[119.8762,10.4693],[119.8743,10.4611],[119.8155,10.4424],[119.8043,10.4414],[119.7967,10.4518],[119.7732,10.4506],[119.762,10.4652],[119.7704,10.4727],[119.7649,10.529],[119.7552,10.533],[119.7487,10.5177],[119.7433,10.541],[119.7517,10.5455],[119.7491,10.5538],[119.7461,10.5475],[119.7424,10.5497],[119.7622,10.5652],[119.7849,10.5574],[119.791,10.5459]]],[[[119.7084,10.5562],[119.7023,10.5583],[119.7075,10.5628],[119.7084,10.5562]]],[[[119.7045,10.5496],[119.706,10.5481],[119.7043,10.5483],[119.7045,10.5496]]],[[[119.7419,10.5362],[119.7316,10.5367],[119.7317,10.5479],[119.7419,10.5362]]],[[[119.7297,10.5346],[119.7246,10.5339],[119.7251,10.5354],[119.7273,10.5364],[119.7297,10.5346]]]]}},{"type":"Feature","properties":{"ADM3_EN":"El Nido (Bacuit)","ADM3_PCODE":"PH1705312","psgc_code":"1705312000","AREA_SQKM":562.020273917},"geometry":{"type":"MultiPolygon","coordinates":[[[[119.5014,11.4254],[119.4957,11.4385],[119.4991,11.445],[119.5066,11.4388],[119.5014,11.4254]]],[[[119.5138,11.0968],[119.4699,11.0543],[119.4836,11.0537],[119.4493,11.0126],[119.4141,10.9832],[119.3973,10.9891],[119.4048,11.0038],[119.3753,11.002],[119.3446,11.024],[119.3443,11.0332],[119.3337,11.0283],[119.3288,11.0366],[119.3444,11.0546],[119.3378,11.0582],[119.3322,11.0504],[119.3279,11.0604],[119.3235,11.0579],[119.3255,11.1065],[119.3359,11.1052],[119.3405,11.0847],[119.3446,11.0904],[119.3545,11.0886],[119.3462,11.0738],[119.3694,11.0449],[119.3818,11.0483],[119.3996,11.0314],[119.4054,11.0452],[119.4105,11.0312],[119.4179,11.0371],[119.4155,11.0771],[119.4227,11.0899],[119.4142,11.1103],[119.4245,11.1092],[119.4202,11.1297],[119.4289,11.1363],[119.4225,11.1466],[119.4247,11.1495],[119.4232,11.1502],[119.4051,11.1456],[119.4002,11.1325],[119.3926,11.1441],[119.3958,11.1679],[119.3849,11.1672],[119.375,11.1826],[119.3812,11.1893],[119.3909,11.1815],[119.3987,11.2014],[119.4166,11.21],[119.4226,11.2341],[119.412,11.2483],[119.4206,11.2569],[119.4199,11.2939],[119.4181,11.3091],[119.4124,11.3099],[119.4101,11.312],[119.4258,11.3178],[119.4316,11.3458],[119.4515,11.3326],[119.451,11.3485],[119.4726,11.3625],[119.4771,11.3764],[119.469,11.4017],[119.4798,11.4074],[119.4767,11.4255],[119.4875,11.4242],[119.4937,11.4137],[119.5053,11.4152],[119.5103,11.3318],[119.5372,11.3218],[119.5464,11.3408],[119.5539,11.3401],[119.5537,11.3195],[119.5643,11.3125],[119.5622,11.2991],[119.5689,11.2926],[119.5547,11.2178],[119.536,11.1951],[119.5382,11.1745],[119.4999,11.1329],[119.5138,11.0968]]],[[[119.4667,11.4216],[119.4638,11.4228],[119.4678,11.4253],[119.4667,11.4216]]],[[[119.5189,11.4108],[119.5186,11.4096],[119.518,11.4107],[119.5189,11.4108]]],[[[119.5149,11.4014],[119.514,11.4027],[119.5154,11.4028],[119.5149,11.4014]]],[[[119.4565,11.3899],[119.4535,11.3882],[119.4551,11.3923],[119.4565,11.3899]]],[[[119.4555,11.385],[119.4549,11.3848],[119.4548,11.3851],[119.4555,11.385]]],[[[119.5289,11.364],[119.5253,11.3691],[119.5341,11.3749],[119.5425,11.3718],[119.5289,11.364]]],[[[119.4178,11.3671],[119.4059,11.3508],[119.4048,11.3584],[119.4178,11.3671]]],[[[119.5448,11.3432],[119.5474,11.3438],[119.547,11.3428],[119.5448,11.3432]]],[[[119.4262,11.3298],[119.4271,11.3298],[119.4271,11.3297],[119.4262,11.3298]]],[[[119.3433,11.2757],[119.343,11.2755],[119.3429,11.2756],[119.3433,11.2757]]],[[[119.3446,11.2739],[119.3423,11.273],[119.3421,11.275],[119.3446,11.2739]]],[[[119.346,11.274],[119.3457,11.2741],[119.3456,11.2742],[119.346,11.274]]],[[[119.3577,11.2541],[119.3474,11.2653],[119.3498,11.2727],[119.3584,11.2593],[119.3577,11.2541]]],[[[119.4095,11.2505],[119.4079,11.2514],[119.4068,11.2532],[119.4095,11.2505]]],[[[119.3568,11.249],[119.3556,11.2482],[119.3563,11.2495],[119.3568,11.249]]],[[[119.3464,11.2264],[119.3457,11.2462],[119.3553,11.2452],[119.3596,11.2189],[119.3705,11.2174],[119.3772,11.225],[119.3763,11.2033],[119.3818,11.1953],[119.3445,11.2085],[119.3392,11.2225],[119.3464,11.2264]]],[[[119.3647,11.232],[119.3661,11.2314],[119.3654,11.2308],[119.3647,11.232]]],[[[119.2703,11.1883],[119.2547,11.208],[119.2591,11.2265],[119.2665,11.2196],[119.2681,11.2044],[119.2731,11.2006],[119.2703,11.1883]]],[[[119.2972,11.1944],[119.2925,11.1997],[119.2919,11.2168],[119.298,11.2042],[119.2972,11.1944]]],[[[119.2824,11.1366],[119.2818,11.1757],[119.274,11.2137],[119.2778,11.1976],[119.284,11.1862],[119.2915,11.1793],[119.2828,11.1635],[119.2824,11.1366]]],[[[119.3782,11.2082],[119.3798,11.2106],[119.3799,11.2095],[119.3795,11.2085],[119.3782,11.2082]]],[[[119.3368,11.1945],[119.3346,11.2049],[119.3369,11.2079],[119.3407,11.2006],[119.3368,11.1945]]],[[[119.2696,11.2039],[119.2697,11.2048],[119.2704,11.2033],[119.2696,11.2039]]],[[[119.282,11.1915],[119.2821,11.1918],[119.2822,11.1915],[119.282,11.1915]]],[[[119.2826,11.1902],[119.2831,11.191],[119.283,11.1894],[119.2826,11.1902]]],[[[119.2915,11.1784],[119.2923,11.1787],[119.2917,11.1782],[119.2915,11.1784]]],[[[119.5424,11.1573],[119.5426,11.1639],[119.5485,11.1743],[119.5513,11.1667],[119.5424,11.1573]]],[[[119.5424,11.1673],[119.5391,11.1662],[119.5401,11.1688],[119.5424,11.1673]]],[[[119.3195,11.1589],[119.3264,11.1531],[119.3186,11.1561],[119.322,11.1435],[119.3052,11.1434],[119.3096,11.1557],[119.3195,11.1589]]],[[[119.3898,11.1443],[119.3909,11.146],[119.3915,11.1445],[119.3898,11.1443]]],[[[119.3182,11.1401],[119.318,11.1408],[119.3183,11.1401],[119.3182,11.1401]]],[[[119.3178,11.1378],[119.3193,11.139],[119.3191,11.1376],[119.3178,11.1378]]],[[[119.2491,11.1269],[119.2379,11.1367],[119.2379,11.1403],[119.2485,11.1339],[119.2491,11.1269]]],[[[119.3153,11.1335],[119.3205,11.1354],[119.3144,11.1287],[119.3153,11.1335]]],[[[119.4194,11.1352],[119.4186,11.1356],[119.4197,11.1357],[119.4194,11.1352]]],[[[119.336,11.1306],[119.3301,11.128],[119.3303,11.1311],[119.336,11.1306]]],[[[119.2611,11.1117],[119.2497,11.1223],[119.249,11.1257],[119.2575,11.1261],[119.2611,11.1117]]],[[[119.3908,11.1198],[119.3941,11.124],[119.3947,11.1192],[119.3908,11.1198]]],[[[119.3266,11.1158],[119.3354,11.1167],[119.3367,11.1129],[119.3266,11.1158]]],[[[119.3059,11.1096],[119.3053,11.1075],[119.305,11.1113],[119.3059,11.1096]]],[[[119.401,11.1056],[119.4063,11.1073],[119.4054,11.0988],[119.401,11.1056]]],[[[119.3571,11.1003],[119.356,11.0997],[119.3563,11.1013],[119.3571,11.1003]]],[[[119.391,11.0995],[119.407,11.0857],[119.4048,11.0735],[119.3899,11.0859],[119.391,11.0995]]],[[[119.3412,11.0959],[119.3406,11.0944],[119.3405,11.0964],[119.3412,11.0959]]],[[[119.3855,11.0763],[119.3845,11.0761],[119.3848,11.0769],[119.3855,11.0763]]],[[[119.3911,11.0752],[119.3903,11.0761],[119.3903,11.0764],[119.3911,11.0752]]],[[[119.3853,11.0713],[119.3858,11.0716],[119.3859,11.0713],[119.3853,11.0713]]],[[[119.386,11.071],[119.3863,11.0712],[119.3865,11.071],[119.386,11.071]]],[[[119.3723,11.0701],[119.375,11.0639],[119.372,11.0602],[119.3693,11.0618],[119.3723,11.0701]]],[[[119.3245,11.0563],[119.3236,11.0568],[119.3246,11.0571],[119.3245,11.0563]]],[[[119.3069,11.0473],[119.3034,11.0461],[119.3051,11.0492],[119.3069,11.0473]]],[[[119.3045,11.0423],[119.3032,11.0423],[119.3035,11.0433],[119.3045,11.0423]]],[[[119.3048,11.0398],[119.3048,11.0392],[119.3045,11.0396],[119.3048,11.0398]]],[[[119.3548,11.0137],[119.3552,11.0152],[119.3559,11.0144],[119.3548,11.0137]]]]}},{"type":"Feature","properties":{"ADM3_EN":"Linapacan","ADM3_PCODE":"PH1705313","psgc_code":"1705313000","AREA_SQKM":159.720763396},"geometry":{"type":"MultiPolygon","coordinates":[[[[119.9696,11.6328],[119.96,11.6358],[119.9503,11.6569],[119.9632,11.6486],[119.9667,11.6546],[119.9696,11.6328]]],[[[119.9733,11.6331],[119.9737,11.6335],[119.9737,11.633],[119.9733,11.6331]]],[[[119.9739,11.633],[119.9751,11.6323],[119.9751,11.6313],[119.9739,11.633]]],[[[119.9128,11.6074],[119.915,11.6095],[119.9152,11.6055],[119.9128,11.6074]]],[[[119.8624,11.5934],[119.8597,11.6],[119.8587,11.6016],[119.8586,11.6013],[119.8582,11.6013],[119.8568,11.609],[119.8624,11.5934]]],[[[119.8586,11.601],[119.8584,11.601],[119.8586,11.6011],[119.8586,11.601]]],[[[119.8582,11.6011],[119.8582,11.6011],[119.8582,11.6011],[119.8582,11.6011]]],[[[119.8583,11.6009],[119.8584,11.6008],[119.8583,11.6008],[119.8583,11.6009]]],[[[119.9273,11.5772],[119.9306,11.5883],[119.9436,11.585],[119.9471,11.5775],[119.934,11.5835],[119.9273,11.5772]]],[[[119.9156,11.5772],[119.9192,11.5723],[119.9181,11.5728],[119.9163,11.575],[119.9156,11.5772]]],[[[119.8697,11.5636],[119.8668,11.5612],[119.8677,11.5658],[119.8697,11.5636]]],[[[119.9289,11.5619],[119.9306,11.5625],[119.9294,11.5612],[119.9289,11.5619]]],[[[119.8849,11.5468],[119.8887,11.5588],[119.8879,11.5461],[119.8849,11.5468]]],[[[119.847,11.5478],[119.8474,11.5552],[119.8585,11.554],[119.8589,11.548],[119.847,11.5478]]],[[[119.8957,11.5549],[119.8989,11.5538],[119.8964,11.5508],[119.8957,11.5549]]],[[[119.844,11.5533],[119.8427,11.5535],[119.8432,11.5542],[119.844,11.5533]]],[[[119.8748,11.5509],[119.8714,11.5457],[119.8752,11.5528],[119.8748,11.5509]]],[[[119.8179,11.5433],[119.8055,11.5477],[119.8197,11.5464],[119.8179,11.5433]]],[[[119.8391,11.5449],[119.8393,11.5428],[119.8385,11.5442],[119.8391,11.5449]]],[[[119.8407,11.544],[119.8404,11.5444],[119.8405,11.5445],[119.8407,11.544]]],[[[119.9151,11.5351],[119.9123,11.5379],[119.9134,11.5391],[119.9151,11.5351]]],[[[119.8796,11.5262],[119.8789,11.5328],[119.8852,11.5339],[119.8872,11.5299],[119.8796,11.5262]]],[[[119.7324,11.5276],[119.7318,11.5279],[119.7326,11.5281],[119.7324,11.5276]]],[[[119.8644,11.5208],[119.8638,11.5203],[119.8644,11.5212],[119.8644,11.5208]]],[[[119.8111,11.5196],[119.8109,11.5198],[119.8111,11.5197],[119.8111,11.5196]]],[[[119.7284,11.4451],[119.7341,11.4412],[119.7387,11.4479],[119.7343,11.4543],[119.7254,11.4502],[119.712,11.4643],[119.7128,11.473],[119.7282,11.4793],[119.728,11.4653],[119.7391,11.4664],[119.7543,11.4544],[119.764,11.4367],[119.7745,11.4395],[119.7663,11.4576],[119.7826,11.4525],[119.786,11.4652],[119.7672,11.4697],[119.7634,11.4772],[119.7775,11.4788],[119.7759,11.4936],[119.7911,11.4841],[119.7838,11.4793],[119.7965,11.4644],[119.7944,11.4557],[119.8012,11.4518],[119.8129,11.4521],[119.8154,11.4555],[119.8071,11.4645],[119.8088,11.4721],[119.8291,11.4559],[119.8354,11.4574],[119.8311,11.465],[119.8362,11.469],[119.8353,11.4738],[119.8246,11.4828],[119.8441,11.476],[119.8414,11.4844],[119.8476,11.4861],[119.839,11.5001],[119.8159,11.507],[119.811,11.5194],[119.8302,11.5093],[119.8441,11.5161],[119.8684,11.5062],[119.8705,11.4791],[119.8623,11.4637],[119.8696,11.4528],[119.8591,11.4326],[119.8506,11.4335],[119.8541,11.4192],[119.8305,11.3908],[119.8308,11.378],[119.8085,11.3793],[119.8129,11.3991],[119.802,11.3986],[119.8047,11.4081],[119.8113,11.4018],[119.816,11.4151],[119.8255,11.4144],[119.8248,11.4273],[119.813,11.4277],[119.8053,11.4154],[119.7858,11.4258],[119.7744,11.4157],[119.7811,11.4049],[119.7739,11.3947],[119.7613,11.4033],[119.7581,11.4217],[119.7517,11.4244],[119.7477,11.4165],[119.727,11.433],[119.7284,11.4451]]],[[[119.6837,11.4866],[119.6686,11.5018],[119.6709,11.5158],[119.6794,11.5121],[119.677,11.5029],[119.6905,11.5025],[119.6837,11.4866]]],[[[119.8255,11.515],[119.8256,11.5148],[119.8254,11.5146],[119.8255,11.515]]],[[[119.7554,11.5137],[119.7552,11.5144],[119.7555,11.5143],[119.7554,11.5137]]],[[[119.9115,11.5123],[119.9101,11.5118],[119.9103,11.5123],[119.9115,11.5123]]],[[[119.869,11.5065],[119.8686,11.5066],[119.8688,11.5068],[119.869,11.5065]]],[[[119.8988,11.5023],[119.9009,11.4868],[119.8848,11.4853],[119.8896,11.5033],[119.8988,11.5023]]],[[[119.776,11.4956],[119.7755,11.495],[119.775,11.497],[119.776,11.4956]]],[[[119.7782,11.4943],[119.7777,11.4944],[119.778,11.4946],[119.7782,11.4943]]],[[[119.8368,11.4928],[119.8408,11.4902],[119.8357,11.4899],[119.8368,11.4928]]],[[[119.9289,11.4923],[119.9277,11.4933],[119.9291,11.4931],[119.9289,11.4923]]],[[[119.6729,11.4892],[119.6733,11.4889],[119.6728,11.489],[119.6729,11.4892]]],[[[119.8412,11.4885],[119.8425,11.489],[119.8417,11.4879],[119.8412,11.4885]]],[[[119.6668,11.4762],[119.6663,11.4866],[119.6657,11.4885],[119.6724,11.4886],[119.6668,11.4762]]],[[[119.6658,11.4879],[119.6655,11.4877],[119.6654,11.488],[119.6658,11.4879]]],[[[119.8731,11.4867],[119.8769,11.4803],[119.872,11.4812],[119.8731,11.4867]]],[[[119.6532,11.4835],[119.6513,11.485],[119.654,11.4831],[119.6532,11.4835]]],[[[119.7284,11.4803],[119.7275,11.4831],[119.7287,11.4814],[119.7287,11.4808],[119.7284,11.4803]]],[[[119.6595,11.47],[119.6538,11.4745],[119.6536,11.4816],[119.6625,11.479],[119.6595,11.47]]],[[[119.7125,11.4803],[119.7131,11.4802],[119.713,11.4799],[119.7125,11.4803]]],[[[119.8711,11.4755],[119.8779,11.4776],[119.8792,11.4718],[119.8711,11.4755]]],[[[119.7118,11.4796],[119.7147,11.479],[119.7136,11.478],[119.7132,11.4788],[119.7121,11.4793],[119.7118,11.4796]]],[[[119.7097,11.4779],[119.7103,11.4778],[119.7101,11.4777],[119.7097,11.4779]]],[[[119.7102,11.4767],[119.7129,11.4765],[119.7133,11.4738],[119.7102,11.4767]]],[[[119.8825,11.475],[119.8818,11.4741],[119.8822,11.4752],[119.8825,11.475]]],[[[119.7565,11.4721],[119.7569,11.4745],[119.7573,11.472],[119.7565,11.4721]]],[[[119.6433,11.4733],[119.6418,11.4727],[119.6415,11.4731],[119.6433,11.4733]]],[[[119.8328,11.4729],[119.8332,11.4731],[119.8331,11.4728],[119.8328,11.4729]]],[[[119.8857,11.4727],[119.8841,11.4717],[119.8845,11.4727],[119.8857,11.4727]]],[[[119.8875,11.4715],[119.8871,11.4709],[119.8871,11.4715],[119.8875,11.4715]]],[[[119.8357,11.4692],[119.8357,11.4696],[119.8359,11.4693],[119.8357,11.4692]]],[[[119.6631,11.4679],[119.663,11.466],[119.6612,11.4685],[119.6631,11.4679]]],[[[119.6673,11.4643],[119.6662,11.4641],[119.6659,11.4647],[119.6673,11.4643]]],[[[120.1556,11.4316],[120.1783,11.4608],[120.1868,11.4633],[120.1992,11.4526],[120.1556,11.4316]]],[[[119.6693,11.462],[119.6695,11.4623],[119.6696,11.4622],[119.6693,11.462]]],[[[119.8332,11.4589],[119.8327,11.4589],[119.8327,11.4592],[119.8332,11.4589]]],[[[119.8334,11.458],[119.8337,11.458],[119.8336,11.4579],[119.8334,11.458]]],[[[119.6449,11.4529],[119.6446,11.4513],[119.644,11.4543],[119.6449,11.4529]]],[[[119.8134,11.454],[119.8136,11.454],[119.8135,11.4539],[119.8134,11.454]]],[[[119.8012,11.4519],[119.8011,11.452],[119.8012,11.452],[119.8012,11.4519]]],[[[119.7223,11.4432],[119.7172,11.4436],[119.7177,11.4446],[119.7223,11.4432]]],[[[119.7057,11.4352],[119.7078,11.4385],[119.7095,11.4359],[119.7057,11.4352]]],[[[119.6595,11.3956],[119.6465,11.4028],[119.6333,11.4316],[119.642,11.4358],[119.6415,11.4259],[119.6452,11.4319],[119.6494,11.4121],[119.6674,11.4189],[119.6572,11.4048],[119.6595,11.3956]]],[[[120.1811,11.4326],[120.1809,11.4317],[120.1801,11.4322],[120.1811,11.4326]]],[[[120.1801,11.431],[120.169,11.4146],[120.1692,11.4213],[120.1801,11.431]]],[[[119.7054,11.4281],[119.7051,11.4279],[119.7051,11.4283],[119.7054,11.4281]]],[[[119.7063,11.4241],[119.7115,11.425],[119.7118,11.4241],[119.7063,11.4241]]],[[[119.7165,11.4024],[119.7248,11.4125],[119.7214,11.399],[119.7165,11.4024]]],[[[120.1403,11.412],[120.1428,11.4075],[120.135,11.4103],[120.1403,11.412]]],[[[119.6659,11.3995],[119.6661,11.3975],[119.6644,11.3985],[119.6659,11.3995]]],[[[119.8087,11.3913],[119.8056,11.3871],[119.8071,11.3926],[119.8087,11.3913]]],[[[120.0901,11.3753],[120.0944,11.3843],[120.0797,11.3899],[120.1071,11.3864],[120.1146,11.3743],[120.1086,11.3644],[120.0961,11.3641],[120.0901,11.3753]]],[[[119.7033,11.3914],[119.7027,11.3916],[119.7033,11.3917],[119.7033,11.3914]]],[[[119.6983,11.3354],[119.6994,11.3515],[119.7141,11.3439],[119.7073,11.3364],[119.6983,11.3354]]],[[[120.0913,11.3442],[120.0919,11.3443],[120.0917,11.344],[120.0913,11.3442]]],[[[120.0948,11.3427],[120.095,11.3431],[120.0953,11.3429],[120.0948,11.3427]]],[[[119.6749,11.2645],[119.6653,11.2697],[119.6562,11.2992],[119.6653,11.3127],[119.6759,11.3077],[119.6808,11.3223],[119.6904,11.3256],[119.6962,11.3107],[119.6749,11.2645]]],[[[120.2322,11.2957],[120.2341,11.2964],[120.234,11.2954],[120.2322,11.2957]]],[[[119.6242,11.2314],[119.6198,11.2376],[119.6272,11.2646],[119.6356,11.2568],[119.6242,11.2314]]],[[[119.6954,11.2615],[119.6972,11.2637],[119.6956,11.2597],[119.6954,11.2615]]],[[[119.6965,11.2287],[119.7099,11.2596],[119.7303,11.2562],[119.7292,11.2519],[119.6965,11.2287]]],[[[119.6771,11.2392],[119.685,11.2455],[119.6855,11.237],[119.6771,11.2392]]],[[[120.2718,11.2396],[120.2709,11.2333],[120.2684,11.2352],[120.2718,11.2396]]]]}},{"type":"Feature","properties":{"ADM3_EN":"Magsaysay","ADM3_PCODE":"PH1705314","psgc_code":"1705314000","AREA_SQKM":47.5315963648},"geometry":{"type":"MultiPolygon","coordinates":[[[[120.9488,11.0937],[120.9487,11.0966],[120.9502,11.0952],[120.9488,11.0937]]],[[[121.1406,11.0336],[121.1431,11.0362],[121.1432,11.0346],[121.1406,11.0336]]],[[[120.8161,11.0091],[120.8311,11.0082],[120.8177,11.0036],[120.8161,11.0091]]],[[[121.0981,10.996],[121.1034,10.9975],[121.1032,10.9963],[121.0981,10.996]]],[[[120.9459,10.9738],[120.9379,10.9889],[120.9531,10.9985],[120.9652,10.9805],[120.9459,10.9738]]],[[[121.2105,10.9715],[121.2171,10.9803],[121.2345,10.9705],[121.2249,10.9655],[121.2257,10.9569],[121.2105,10.9715]]],[[[121.232,10.9593],[121.2394,10.955],[121.2391,10.9523],[121.2312,10.9541],[121.232,10.9593]]],[[[121.0444,10.9063],[121.0351,10.9131],[121.0356,10.9153],[121.0456,10.9137],[121.0444,10.9063]]],[[[121.0172,10.913],[121.0165,10.9127],[121.0168,10.9134],[121.0172,10.913]]],[[[121.0153,10.9099],[121.0132,10.9106],[121.0163,10.9111],[121.0153,10.9099]]],[[[121.045,10.8092],[121.0307,10.8318],[121.0305,10.8489],[121.0402,10.8601],[121.0326,10.8717],[121.046,10.8725],[121.0531,10.8828],[121.0519,10.905],[121.0701,10.9076],[121.0799,10.895],[121.0633,10.8859],[121.0609,10.8747],[121.0769,10.869],[121.0816,10.8538],[121.0589,10.84],[121.0654,10.8081],[121.045,10.8092]]],[[[120.9943,10.9027],[120.9941,10.9037],[120.9947,10.9033],[120.9943,10.9027]]],[[[121.0507,10.8892],[121.0457,10.8925],[121.051,10.8964],[121.0507,10.8892]]],[[[121.201,10.8791],[121.1983,10.8936],[121.2103,10.884],[121.201,10.8791]]],[[[121.0522,10.891],[121.0517,10.8924],[121.052,10.8922],[121.0522,10.891]]],[[[121.0523,10.8901],[121.0524,10.891],[121.0525,10.8899],[121.0523,10.8901]]],[[[121.0665,10.8862],[121.0639,10.8848],[121.0658,10.8868],[121.0665,10.8862]]]]}},{"type":"Feature","properties":{"ADM3_EN":"Narra","ADM3_PCODE":"PH1705315","psgc_code":"1705315000","AREA_SQKM":753.392646142},"geometry":{"type":"MultiPolygon","coordinates":[[[[118.5007,9.3231],[118.4889,9.294],[118.4674,9.302],[118.4426,9.2758],[118.4286,9.2773],[118.419,9.2586],[118.4216,9.2449],[118.397,9.2438],[118.3861,9.229],[118.3886,9.2244],[118.3817,9.227],[118.3794,9.2158],[118.3634,9.2105],[118.3644,9.1958],[118.3447,9.1782],[118.3286,9.1736],[118.2959,9.1827],[118.2217,9.1572],[118.2098,9.1695],[118.1864,9.1529],[118.1541,9.148],[118.1485,9.1349],[118.1375,9.1495],[118.0939,9.166],[118.0645,9.189],[118.0814,9.209],[118.1155,9.2071],[118.1204,9.2518],[118.1656,9.2967],[118.2554,9.3469],[118.3344,9.3643],[118.3225,9.4047],[118.4229,9.4429],[118.4232,9.4332],[118.4505,9.4183],[118.4319,9.3964],[118.4567,9.3813],[118.4844,9.3477],[118.4787,9.3402],[118.5007,9.3231]]],[[[118.4998,9.2522],[118.5025,9.2513],[118.5015,9.2505],[118.4998,9.2522]]],[[[118.4269,9.2076],[118.4324,9.2447],[118.4411,9.2489],[118.4407,9.2369],[118.4534,9.2359],[118.4567,9.2194],[118.4269,9.2076]]],[[[118.3915,9.2285],[118.3896,9.2271],[118.3897,9.229],[118.3915,9.2285]]],[[[118.3818,9.2253],[118.3823,9.2253],[118.3822,9.225],[118.3818,9.2253]]],[[[118.3862,9.2192],[118.3847,9.2194],[118.3851,9.221],[118.3862,9.2192]]],[[[118.3816,9.2059],[118.3804,9.2024],[118.3785,9.2056],[118.3816,9.2059]]],[[[118.1637,9.126],[118.1601,9.1223],[118.1592,9.1259],[118.1637,9.126]]]]}},{"type":"Feature","properties":{"ADM3_EN":"Quezon","ADM3_PCODE":"PH1705317","psgc_code":"1705317000","AREA_SQKM":935.119820048},"geometry":{"type":"MultiPolygon","coordinates":[[[[118.2865,9.5497],[118.3344,9.3643],[118.235,9.338],[118.1656,9.2967],[118.1204,9.2518],[118.1155,9.2071],[118.0814,9.209],[118.0645,9.189],[118.0078,9.1787],[117.9832,9.1597],[117.9233,9.0923],[117.9007,9.0125],[117.8605,8.9955],[117.7588,9.1115],[117.762,9.1282],[117.7805,9.1438],[117.7732,9.1463],[117.7758,9.165],[117.8034,9.1803],[117.8113,9.1977],[117.8246,9.1884],[117.8542,9.217],[117.862,9.2087],[117.8693,9.2299],[117.8846,9.2347],[117.8822,9.2439],[117.9078,9.2619],[117.953,9.2508],[117.9536,9.2628],[117.9817,9.2806],[117.9853,9.2706],[117.9773,9.2517],[117.9837,9.2444],[117.9939,9.2389],[118.0042,9.2466],[118.0214,9.2445],[118.0279,9.2528],[118.0244,9.2661],[118.0484,9.2789],[118.0513,9.2996],[118.0662,9.2998],[118.0782,9.3174],[118.0869,9.3161],[118.0869,9.3333],[118.0995,9.3385],[118.1057,9.3285],[118.1099,9.3292],[118.1271,9.3429],[118.1162,9.3723],[118.1285,9.3859],[118.1274,9.3977],[118.1449,9.3956],[118.1845,9.4077],[118.1974,9.4715],[118.2714,9.5213],[118.2875,9.5387],[118.2865,9.5497]]],[[[118.0934,9.3539],[118.0843,9.3537],[118.0839,9.3587],[118.0934,9.3539]]],[[[117.9485,9.3122],[117.9462,9.3125],[117.9442,9.3164],[117.9485,9.3122]]],[[[117.9669,9.2892],[117.9609,9.2982],[117.9568,9.3],[117.9579,9.3009],[117.9644,9.2989],[117.9669,9.2892]]],[[[118.0033,9.2871],[117.9988,9.2976],[118.0007,9.2971],[118.0033,9.2871]]],[[[117.9389,9.2734],[117.9301,9.2835],[117.9469,9.2949],[117.938,9.2821],[117.9389,9.2734]]],[[[117.9445,9.2657],[117.9385,9.2677],[117.9337,9.2714],[117.9428,9.2732],[117.9445,9.2657]]],[[[117.8897,9.2623],[117.8892,9.2574],[117.8846,9.2597],[117.8897,9.2623]]],[[[117.857,9.243],[117.8489,9.2449],[117.8603,9.2473],[117.857,9.243]]]]}},{"type":"Feature","properties":{"ADM3_EN":"Roxas","ADM3_PCODE":"PH1705318","psgc_code":"1705318000","AREA_SQKM":1129.99855706},"geometry":{"type":"MultiPolygon","coordinates":[[[[119.3661,10.5874],[119.4048,10.5577],[119.4252,10.5162],[119.4449,10.534],[119.4948,10.4838],[119.5077,10.485],[119.5194,10.5015],[119.5518,10.5096],[119.5564,10.4839],[119.5745,10.4579],[119.5681,10.4515],[119.5724,10.4362],[119.5865,10.439],[119.5828,10.4278],[119.5502,10.4124],[119.5694,10.373],[119.5111,10.3608],[119.4865,10.3726],[119.4565,10.3753],[119.4271,10.3518],[119.4143,10.3567],[119.4016,10.3456],[119.3718,10.3461],[119.3525,10.3151],[119.3224,10.3111],[119.2925,10.2834],[119.2843,10.2543],[119.2581,10.233],[119.2431,10.2017],[119.2474,10.182],[119.2328,10.181],[119.2291,10.1627],[119.2357,10.1491],[119.2251,10.1454],[119.2272,10.1188],[119.2178,10.0773],[119.2035,10.0615],[119.2067,10.055],[119.137,10.0248],[119.1586,10.1205],[119.0662,10.2265],[119.0987,10.3158],[119.1852,10.3758],[119.278,10.4175],[119.3356,10.4695],[119.3646,10.5108],[119.3539,10.5752],[119.3661,10.5874]]],[[[119.4832,10.3187],[119.4795,10.3192],[119.481,10.3204],[119.4832,10.3187]]],[[[119.393,10.3029],[119.3889,10.3052],[119.3917,10.3064],[119.393,10.3029]]],[[[119.3647,10.2872],[119.3642,10.2849],[119.3634,10.2854],[119.363,10.2861],[119.3647,10.2872]]],[[[119.4527,10.2843],[119.4498,10.283],[119.4497,10.2844],[119.4527,10.2843]]],[[[119.3525,10.2692],[119.354,10.2805],[119.3622,10.2811],[119.3611,10.2747],[119.3525,10.2692]]],[[[119.4899,10.2659],[119.4953,10.2702],[119.4983,10.2699],[119.498,10.2686],[119.4899,10.2659]]],[[[119.3692,10.2583],[119.367,10.257],[119.3664,10.2579],[119.3692,10.2583]]],[[[119.3872,10.2486],[119.3832,10.2519],[119.3837,10.2537],[119.3872,10.2486]]],[[[119.3217,10.2404],[119.3253,10.2498],[119.3327,10.2424],[119.328,10.2367],[119.3217,10.2404]]],[[[119.3017,10.2429],[119.3004,10.2412],[119.2994,10.2431],[119.3017,10.2429]]],[[[119.3041,10.2378],[119.2998,10.2353],[119.3004,10.2404],[119.3041,10.2378]]],[[[119.2936,10.211],[119.2949,10.2106],[119.2949,10.2099],[119.2936,10.211]]],[[[119.2567,10.1856],[119.2579,10.1855],[119.258,10.1854],[119.2567,10.1856]]],[[[119.2541,10.1489],[119.2473,10.1452],[119.247,10.1533],[119.2472,10.1543],[119.2476,10.1546],[119.2541,10.1489]]],[[[119.2361,10.0875],[119.2294,10.0928],[119.2326,10.1222],[119.2407,10.1276],[119.2472,10.1036],[119.2361,10.0875]]],[[[119.2199,10.0596],[119.2137,10.0651],[119.2306,10.0874],[119.2325,10.0757],[119.2199,10.0596]]]]}},{"type":"Feature","properties":{"ADM3_EN":"San Vicente","ADM3_PCODE":"PH1705319","psgc_code":"1705319000","AREA_SQKM":604.269985028},"geometry":{"type":"MultiPolygon","coordinates":[[[[119.3661,10.5874],[119.3539,10.5752],[119.3646,10.5108],[119.3356,10.4695],[119.278,10.4175],[119.1852,10.3758],[119.1002,10.3188],[119.0662,10.2265],[119.0614,10.2322],[119.0553,10.2253],[118.9715,10.3102],[118.9913,10.3016],[119.0072,10.344],[119.0194,10.3366],[119.0277,10.3386],[119.0149,10.3547],[119.0206,10.3603],[119.0146,10.3763],[119.0017,10.3577],[118.9751,10.3464],[118.965,10.3712],[118.9831,10.3759],[118.9798,10.3853],[118.992,10.3929],[118.9869,10.4074],[118.9953,10.4132],[119.0015,10.4026],[119.0079,10.4086],[119.0119,10.404],[119.0231,10.4172],[119.0359,10.4121],[119.0365,10.3973],[119.0474,10.4041],[119.0489,10.3908],[119.0572,10.3864],[119.0759,10.4017],[119.0637,10.423],[119.0798,10.4166],[119.0966,10.4206],[119.1049,10.435],[119.0863,10.443],[119.0925,10.4513],[119.0739,10.4512],[119.0896,10.4617],[119.0771,10.4633],[119.0842,10.4673],[119.0826,10.4778],[119.0844,10.4826],[119.0906,10.4706],[119.0977,10.4855],[119.1028,10.4782],[119.1142,10.4845],[119.1213,10.4787],[119.1216,10.4723],[119.1023,10.468],[119.1064,10.4577],[119.1142,10.4601],[119.1113,10.4478],[119.1241,10.4481],[119.1131,10.4113],[119.1262,10.3838],[119.1391,10.3808],[119.1474,10.3926],[119.1422,10.3998],[119.164,10.4131],[119.1764,10.4117],[119.1911,10.4522],[119.2142,10.4616],[119.2156,10.4812],[119.2249,10.4882],[119.2445,10.4791],[119.2566,10.4842],[119.2687,10.5132],[119.251,10.5327],[119.2393,10.5312],[119.2296,10.5477],[119.2405,10.5447],[119.243,10.5518],[119.2581,10.5366],[119.278,10.5453],[119.2971,10.5619],[119.324,10.6065],[119.3166,10.6178],[119.3408,10.6979],[119.3427,10.7358],[119.3233,10.7464],[119.3177,10.7707],[119.3028,10.7754],[119.2743,10.7649],[119.3173,10.789],[119.3443,10.7591],[119.3501,10.7377],[119.3747,10.7173],[119.3776,10.6218],[119.3661,10.5874]]],[[[119.2961,10.7624],[119.2949,10.7623],[119.296,10.7635],[119.2961,10.7624]]],[[[119.3048,10.6883],[119.3042,10.7008],[119.3124,10.7036],[119.3099,10.6903],[119.3048,10.6883]]],[[[119.2981,10.6923],[119.2954,10.6937],[119.2992,10.6938],[119.2981,10.6923]]],[[[119.1227,10.5489],[119.1262,10.5648],[119.1354,10.5693],[119.1192,10.5769],[119.1278,10.5898],[119.1287,10.5817],[119.1381,10.5868],[119.1425,10.5794],[119.1607,10.5928],[119.1603,10.5723],[119.1766,10.5727],[119.174,10.5814],[119.1999,10.5668],[119.185,10.5627],[119.1744,10.5702],[119.1655,10.563],[119.1535,10.5697],[119.1416,10.551],[119.1293,10.5554],[119.1227,10.5489]]],[[[119.1988,10.5508],[119.2038,10.5529],[119.2037,10.5523],[119.1988,10.5508]]],[[[119.1153,10.5519],[119.11,10.5543],[119.1155,10.5528],[119.1153,10.5519]]],[[[119.1177,10.5396],[119.1154,10.5416],[119.1162,10.5424],[119.1177,10.5396]]],[[[119.2312,10.5341],[119.2284,10.5332],[119.2314,10.5348],[119.2312,10.5341]]],[[[119.076,10.4852],[119.0546,10.4893],[119.063,10.4972],[119.0565,10.5055],[119.0691,10.5125],[119.0832,10.5034],[119.076,10.4852]]],[[[119.133,10.5093],[119.1445,10.5049],[119.1519,10.4924],[119.1376,10.5001],[119.1323,10.4939],[119.133,10.5093]]],[[[119.1517,10.491],[119.1537,10.4903],[119.1522,10.4881],[119.1517,10.491]]],[[[119.1577,10.4818],[119.1623,10.4809],[119.1599,10.4773],[119.1577,10.4818]]],[[[119.1644,10.4812],[119.1655,10.4812],[119.1653,10.4804],[119.1644,10.4812]]],[[[119.1609,10.4668],[119.1628,10.4701],[119.1635,10.466],[119.1609,10.4668]]],[[[119.1481,10.4625],[119.1498,10.4641],[119.1534,10.461],[119.1481,10.4625]]],[[[119.1631,10.4581],[119.1774,10.4615],[119.1826,10.4508],[119.1744,10.4595],[119.1631,10.4581]]],[[[119.1565,10.459],[119.1547,10.4594],[119.1563,10.4598],[119.1565,10.459]]],[[[118.9993,10.4436],[118.9955,10.454],[119.0037,10.4588],[119.004,10.4479],[118.9993,10.4436]]],[[[119.1585,10.4591],[119.1599,10.4575],[119.157,10.4584],[119.1585,10.4591]]],[[[119.0205,10.4181],[119.0114,10.4319],[119.0156,10.4425],[119.0273,10.435],[119.0205,10.4181]]],[[[119.0933,10.4272],[119.0945,10.4274],[119.0938,10.4268],[119.0933,10.4272]]],[[[119.1391,10.4164],[119.1418,10.4097],[119.1381,10.4063],[119.1391,10.4164]]],[[[119.1458,10.4072],[119.1468,10.4066],[119.1464,10.4061],[119.1458,10.4072]]],[[[118.9658,10.3647],[118.9651,10.3644],[118.9652,10.3649],[118.9658,10.3647]]],[[[118.9607,10.3362],[118.9595,10.3367],[118.9598,10.3372],[118.9607,10.3362]]],[[[118.9567,10.3333],[118.9581,10.3329],[118.9553,10.333],[118.9567,10.3333]]],[[[118.9491,10.3308],[118.9378,10.3318],[118.9527,10.3345],[118.9491,10.3308]]],[[[118.9532,10.3344],[118.9533,10.3337],[118.953,10.3341],[118.9532,10.3344]]]]}},{"type":"Feature","properties":{"ADM3_EN":"Taytay","ADM3_PCODE":"PH1705320","psgc_code":"1705320000","AREA_SQKM":1299.26005712},"geometry":{"type":"MultiPolygon","coordinates":[[[[119.5996,10.6765],[119.6033,10.6766],[119.6011,10.6741],[119.5996,10.6765]]],[[[119.5857,10.6823],[119.5871,10.6768],[119.5822,10.6751],[119.5857,10.6823]]],[[[119.6264,10.722],[119.6358,10.7199],[119.6339,10.7101],[119.6227,10.7111],[119.6264,10.722]]],[[[119.6985,10.7282],[119.7028,10.7005],[119.6933,10.6836],[119.6887,10.7081],[119.6985,10.7282]]],[[[119.6287,10.7285],[119.6347,10.7302],[119.6349,10.7274],[119.6287,10.7285]]],[[[119.6546,10.7445],[119.6575,10.7467],[119.6602,10.7446],[119.6546,10.7445]]],[[[119.3745,10.7948],[119.3761,10.7958],[119.3765,10.7955],[119.3745,10.7948]]],[[[119.6455,10.8028],[119.6486,10.8011],[119.6446,10.797],[119.6455,10.8028]]],[[[119.6201,10.8144],[119.6238,10.8129],[119.6195,10.8137],[119.6201,10.8144]]],[[[119.3506,10.8233],[119.3523,10.8223],[119.3516,10.822],[119.3506,10.8233]]],[[[119.3263,10.8265],[119.3339,10.8276],[119.3284,10.8213],[119.3263,10.8265]]],[[[119.3539,10.8274],[119.3549,10.8279],[119.3552,10.8263],[119.3539,10.8274]]],[[[119.3279,10.8313],[119.3292,10.8308],[119.3283,10.8304],[119.3279,10.8313]]],[[[119.2358,10.8311],[119.2391,10.8354],[119.2388,10.8341],[119.2358,10.8311]]],[[[119.3465,10.8323],[119.3519,10.8346],[119.351,10.8293],[119.3465,10.8323]]],[[[119.6258,10.8381],[119.6415,10.8207],[119.6408,10.802],[119.6321,10.7981],[119.6216,10.8059],[119.6312,10.8114],[119.6285,10.8184],[119.6171,10.821],[119.6328,10.8233],[119.6215,10.8286],[119.6258,10.8381]]],[[[119.2319,10.8412],[119.2317,10.8412],[119.232,10.8414],[119.2319,10.8412]]],[[[119.2419,10.8421],[119.242,10.8419],[119.2417,10.842],[119.2419,10.8421]]],[[[119.309,10.8432],[119.3111,10.8421],[119.311,10.8416],[119.309,10.8432]]],[[[119.429,10.8456],[119.4321,10.8463],[119.4301,10.8435],[119.429,10.8456]]],[[[119.3001,10.8487],[119.3043,10.8441],[119.2959,10.8497],[119.3001,10.8487]]],[[[119.3389,10.8473],[119.3436,10.8491],[119.3386,10.8456],[119.3389,10.8473]]],[[[119.3694,10.8529],[119.3698,10.8526],[119.3695,10.8527],[119.3694,10.8529]]],[[[119.3689,10.8523],[119.369,10.853],[119.3694,10.8527],[119.3689,10.8523]]],[[[119.37,10.8534],[119.3703,10.8538],[119.3705,10.8536],[119.37,10.8534]]],[[[119.3678,10.8587],[119.3686,10.8576],[119.3674,10.857],[119.3678,10.8587]]],[[[119.3175,10.8599],[119.3272,10.8585],[119.3183,10.8559],[119.3175,10.8599]]],[[[119.3541,10.8609],[119.3563,10.8587],[119.3543,10.8589],[119.3541,10.8609]]],[[[119.2945,10.8653],[119.2948,10.8651],[119.2943,10.8648],[119.2945,10.8653]]],[[[119.6214,10.858],[119.6354,10.8667],[119.6333,10.8508],[119.6214,10.858]]],[[[119.3247,10.8695],[119.3266,10.8697],[119.3267,10.8695],[119.3247,10.8695]]],[[[119.3587,10.8687],[119.3643,10.8696],[119.3655,10.8679],[119.3587,10.8687]]],[[[119.3129,10.8716],[119.3143,10.8693],[119.3115,10.8708],[119.3129,10.8716]]],[[[119.2253,10.8715],[119.2257,10.8713],[119.2256,10.8707],[119.2253,10.8715]]],[[[119.2217,10.8736],[119.2219,10.8727],[119.2218,10.8724],[119.2217,10.8736]]],[[[119.3068,10.8749],[119.3073,10.8754],[119.3077,10.875],[119.3068,10.8749]]],[[[119.346,10.8803],[119.3412,10.8618],[119.3382,10.869],[119.3332,10.8635],[119.332,10.8764],[119.346,10.8803]]],[[[119.2405,10.8816],[119.2404,10.8816],[119.2405,10.8817],[119.2405,10.8816]]],[[[119.2396,10.8816],[119.2402,10.8813],[119.2397,10.881],[119.2396,10.8816]]],[[[119.2403,10.882],[119.24,10.882],[119.2403,10.8821],[119.2403,10.882]]],[[[119.6173,10.8782],[119.6197,10.8852],[119.6196,10.8808],[119.6173,10.8782]]],[[[119.2472,10.8865],[119.2469,10.8861],[119.2469,10.8861],[119.2472,10.8865]]],[[[119.3206,10.8846],[119.326,10.8821],[119.3299,10.8762],[119.3216,10.8779],[119.3206,10.8846]]],[[[119.3396,10.8904],[119.341,10.8903],[119.341,10.8894],[119.3396,10.8904]]],[[[119.6214,10.9027],[119.6229,10.8959],[119.6199,10.8898],[119.6186,10.8981],[119.6214,10.9027]]],[[[119.295,10.9065],[119.2964,10.9061],[119.2939,10.9057],[119.295,10.9065]]],[[[119.2151,10.9093],[119.215,10.9084],[119.2148,10.9085],[119.2151,10.9093]]],[[[119.2952,10.9103],[119.2939,10.9095],[119.2951,10.9107],[119.2952,10.9103]]],[[[119.2509,10.9126],[119.2513,10.9125],[119.2509,10.9123],[119.2509,10.9126]]],[[[119.5027,10.9156],[119.5012,10.9127],[119.5021,10.9156],[119.5027,10.9156]]],[[[119.5141,10.9206],[119.5142,10.9198],[119.5136,10.9203],[119.5141,10.9206]]],[[[119.2933,10.9266],[119.2977,10.922],[119.2865,10.9195],[119.2933,10.9266]]],[[[119.3504,10.93],[119.3546,10.9276],[119.3495,10.9272],[119.3504,10.93]]],[[[119.3423,10.9335],[119.3439,10.9332],[119.3422,10.9313],[119.3423,10.9335]]],[[[119.3522,10.937],[119.3545,10.9365],[119.3533,10.9357],[119.3522,10.937]]],[[[119.3375,10.9356],[119.3422,10.937],[119.3378,10.9312],[119.3375,10.9356]]],[[[119.3454,10.9396],[119.3464,10.9392],[119.3454,10.939],[119.3454,10.9396]]],[[[119.3177,10.9403],[119.3182,10.94],[119.3172,10.9394],[119.3177,10.9403]]],[[[119.2282,10.9584],[119.2303,10.9587],[119.2294,10.9575],[119.2282,10.9584]]],[[[119.7142,10.9632],[119.7159,10.955],[119.7132,10.9367],[119.7058,10.9543],[119.7142,10.9632]]],[[[119.6121,10.9542],[119.6154,10.9611],[119.6181,10.9473],[119.6121,10.9542]]],[[[119.5283,10.9727],[119.536,10.9726],[119.5368,10.9717],[119.5283,10.9727]]],[[[119.5731,10.982],[119.575,10.982],[119.5741,10.9804],[119.5731,10.982]]],[[[119.636,10.9902],[119.6384,10.9878],[119.6379,10.9863],[119.636,10.9902]]],[[[119.5907,10.9905],[119.5917,10.9927],[119.5916,10.9904],[119.5907,10.9905]]],[[[119.5953,10.9967],[119.596,10.9977],[119.5962,10.9968],[119.5953,10.9967]]],[[[119.6958,11.0076],[119.6971,11.0004],[119.6967,10.9958],[119.6951,11.0001],[119.6958,11.0076]]],[[[119.5954,11.0154],[119.5911,11.014],[119.5937,11.0174],[119.5954,11.0154]]],[[[119.334,11.017],[119.3354,11.0162],[119.3338,11.0152],[119.334,11.017]]],[[[119.2947,11.0215],[119.295,11.0215],[119.2947,11.0212],[119.2947,11.0215]]],[[[119.3058,11.0207],[119.3076,11.0206],[119.3062,11.0187],[119.3058,11.0207]]],[[[119.2915,11.023],[119.3024,11.0152],[119.305,11.0156],[119.2991,11.0072],[119.302,10.9933],[119.2878,10.9803],[119.298,10.9742],[119.2924,10.9668],[119.3006,10.9592],[119.2918,10.948],[119.2714,10.958],[119.2623,10.9831],[119.2741,10.9973],[119.2673,11.0017],[119.2693,11.0186],[119.2824,11.0186],[119.2846,11.0118],[119.2915,11.023]]],[[[119.6653,11.0272],[119.6714,11.0218],[119.6682,11.0189],[119.6648,11.0207],[119.6653,11.0272]]],[[[119.731,11.0303],[119.7466,11.0179],[119.7364,11.008],[119.7255,11.0215],[119.731,11.0303]]],[[[119.7338,11.0477],[119.7327,11.0481],[119.7332,11.0487],[119.7338,11.0477]]],[[[119.7081,11.0575],[119.7178,11.0418],[119.7257,11.0423],[119.7236,11.0296],[119.6985,11.0311],[119.6988,11.0534],[119.7081,11.0575]]],[[[119.7066,11.0616],[119.7059,11.0626],[119.7063,11.0631],[119.7066,11.0616]]],[[[119.6202,11.0711],[119.6202,11.0694],[119.619,11.0699],[119.6202,11.0711]]],[[[119.6845,11.0721],[119.6967,11.0644],[119.6747,11.0287],[119.6719,11.055],[119.6814,11.0606],[119.6779,11.0666],[119.6853,11.064],[119.6845,11.0721]]],[[[119.7292,11.0789],[119.7389,11.073],[119.7386,11.0654],[119.7279,11.0687],[119.7292,11.0789]]],[[[119.7118,11.0847],[119.7115,11.0856],[119.7119,11.0861],[119.7118,11.0847]]],[[[119.6713,11.0916],[119.6727,11.0886],[119.67,11.0886],[119.6713,11.0916]]],[[[119.7127,11.0944],[119.7134,11.0937],[119.7128,11.092],[119.7127,11.0944]]],[[[119.5139,11.0968],[119.5253,11.0936],[119.5362,11.068],[119.5613,11.0843],[119.5511,11.0617],[119.5699,11.0074],[119.5613,10.9961],[119.5283,11.0162],[119.5245,11.0103],[119.5171,11.0179],[119.5024,11.0076],[119.4927,10.9905],[119.4966,10.9683],[119.4875,10.9615],[119.4992,10.9265],[119.484,10.8735],[119.5091,10.8612],[119.5106,10.8292],[119.5303,10.8221],[119.5343,10.8122],[119.5749,10.8384],[119.5865,10.8368],[119.591,10.8238],[119.5996,10.8218],[119.5985,10.8094],[119.5787,10.8125],[119.5953,10.7994],[119.5883,10.7817],[119.5849,10.7853],[119.5763,10.7841],[119.5831,10.773],[119.5951,10.7714],[119.5868,10.7444],[119.6014,10.7271],[119.5924,10.7188],[119.5915,10.7014],[119.5873,10.7022],[119.5871,10.703],[119.5861,10.7029],[119.5914,10.698],[119.5837,10.6965],[119.5861,10.6863],[119.5734,10.6804],[119.5747,10.6586],[119.5873,10.6699],[119.5982,10.6613],[119.5982,10.67],[119.611,10.6617],[119.6163,10.6745],[119.622,10.6699],[119.6262,10.6686],[119.6299,10.6764],[119.6201,10.6828],[119.6273,10.6908],[119.6335,10.683],[119.6366,10.6817],[119.6361,10.6921],[119.6431,10.6776],[119.6578,10.6745],[119.6492,10.6733],[119.6485,10.6642],[119.6696,10.658],[119.6569,10.6598],[119.6496,10.65],[119.6434,10.6591],[119.6391,10.6495],[119.6386,10.6576],[119.625,10.6631],[119.5754,10.6188],[119.5693,10.6248],[119.5357,10.6029],[119.5047,10.5582],[119.4449,10.534],[119.4252,10.5162],[119.4048,10.5577],[119.3661,10.5874],[119.3776,10.6218],[119.3747,10.7173],[119.3501,10.7377],[119.3251,10.7855],[119.3095,10.787],[119.2743,10.7648],[119.2622,10.798],[119.2626,10.8314],[119.252,10.8379],[119.2402,10.833],[119.2435,10.8428],[119.2413,10.8459],[119.2372,10.8448],[119.2312,10.841],[119.2284,10.847],[119.2213,10.8431],[119.2241,10.8506],[119.2088,10.849],[119.2108,10.8604],[119.2339,10.8536],[119.2454,10.8577],[119.2461,10.8643],[119.2361,10.8632],[119.2385,10.8692],[119.2257,10.8743],[119.2253,10.8719],[119.2228,10.8718],[119.223,10.878],[119.2406,10.8709],[119.2434,10.8854],[119.2594,10.885],[119.2401,10.9084],[119.2344,10.9016],[119.2251,10.9101],[119.2138,10.9048],[119.2326,10.9336],[119.2146,10.9398],[119.2207,10.9545],[119.2312,10.9561],[119.2311,10.9468],[119.2422,10.9506],[119.2429,10.9355],[119.2337,10.9304],[119.2448,10.9273],[119.2442,10.9098],[119.2556,10.9118],[119.2602,10.9183],[119.2508,10.9325],[119.2659,10.9472],[119.2734,10.9353],[119.2845,10.9363],[119.2753,10.9245],[119.2937,10.9113],[119.2902,10.9047],[119.2795,10.9071],[119.2777,10.8923],[119.2916,10.8957],[119.2988,10.8916],[119.2868,10.8821],[119.275,10.8842],[119.2663,10.8701],[119.276,10.8657],[119.3022,10.8781],[119.3063,10.8733],[119.2993,10.87],[119.3081,10.8711],[119.3016,10.8644],[119.2933,10.8682],[119.2858,10.8613],[119.2911,10.8566],[119.2821,10.8515],[119.2825,10.8474],[119.3116,10.8291],[119.3168,10.8466],[119.3226,10.8202],[119.3325,10.81],[119.3416,10.8127],[119.338,10.8217],[119.3466,10.8205],[119.3445,10.8274],[119.3523,10.8198],[119.357,10.8214],[119.3479,10.8162],[119.3461,10.7984],[119.3591,10.8059],[119.3686,10.7887],[119.3905,10.7908],[119.4052,10.7657],[119.3975,10.7609],[119.3936,10.7667],[119.3904,10.7666],[119.3943,10.7563],[119.4117,10.7542],[119.4154,10.7666],[119.4299,10.7187],[119.4423,10.7253],[119.4563,10.7198],[119.4626,10.7253],[119.4341,10.7994],[119.4401,10.8112],[119.432,10.8313],[119.4575,10.832],[119.4498,10.8372],[119.4512,10.8497],[119.4389,10.8396],[119.4272,10.8575],[119.4154,10.8557],[119.4131,10.8719],[119.3896,10.8709],[119.3722,10.8584],[119.364,10.8741],[119.3484,10.8712],[119.3533,10.8882],[119.3478,10.896],[119.3339,10.8935],[119.3616,10.9369],[119.3529,10.9482],[119.3285,10.9417],[119.328,10.9339],[119.3187,10.9371],[119.3218,10.9415],[119.3104,10.9428],[119.3325,10.9503],[119.3126,10.9524],[119.3031,11.0084],[119.3201,11.0345],[119.3467,10.9896],[119.3483,11.0033],[119.3579,10.9986],[119.3669,11.01],[119.3814,10.9996],[119.3903,11.0064],[119.4048,11.0038],[119.3973,10.9891],[119.4141,10.9832],[119.4493,11.0126],[119.4836,11.0537],[119.4699,11.0543],[119.5139,11.0968]]],[[[119.585,11.1001],[119.5891,11.0877],[119.6243,11.0858],[119.6165,11.0735],[119.6179,11.0602],[119.6252,11.0368],[119.634,11.0324],[119.6393,11.038],[119.643,11.0253],[119.6337,10.9949],[119.6293,11.0237],[119.6103,11.005],[119.5975,11.0118],[119.5987,11.0341],[119.5931,11.0286],[119.5613,11.0436],[119.5602,11.0627],[119.585,11.1001]]],[[[119.5977,11.1013],[119.6002,11.0951],[119.5977,11.0943],[119.5977,11.1013]]],[[[119.5895,11.1015],[119.5885,11.101],[119.5887,11.1016],[119.5895,11.1015]]],[[[119.6067,11.1078],[119.6095,11.1059],[119.607,11.1059],[119.6067,11.1078]]],[[[119.54,11.1118],[119.5406,11.1102],[119.5391,11.1106],[119.54,11.1118]]],[[[119.7487,11.1188],[119.7506,11.1154],[119.7478,11.1168],[119.7487,11.1188]]],[[[119.6972,11.1234],[119.7018,11.1207],[119.6949,11.1199],[119.6972,11.1234]]],[[[119.6878,11.1231],[119.698,11.0931],[119.6769,11.076],[119.6865,11.0895],[119.6669,11.1215],[119.6878,11.1231]]],[[[119.6586,11.1277],[119.6608,11.1274],[119.6597,11.1258],[119.6586,11.1277]]],[[[119.6546,11.1358],[119.6589,11.135],[119.6579,11.1333],[119.6546,11.1358]]],[[[119.6656,11.1387],[119.669,11.1381],[119.6678,11.1374],[119.6656,11.1387]]],[[[119.5565,11.1458],[119.5554,11.1436],[119.555,11.1437],[119.5565,11.1458]]],[[[119.555,11.1477],[119.5537,11.147],[119.554,11.1483],[119.555,11.1477]]],[[[119.6948,11.1579],[119.7,11.1571],[119.6901,11.1492],[119.6948,11.1579]]],[[[119.6493,11.1691],[119.6536,11.1626],[119.6525,11.1605],[119.6493,11.1691]]],[[[119.6649,11.1704],[119.665,11.1698],[119.6645,11.1702],[119.6649,11.1704]]],[[[119.6674,11.1699],[119.6726,11.1721],[119.6721,11.1664],[119.6674,11.1699]]],[[[119.6756,11.1908],[119.6753,11.187],[119.6717,11.1873],[119.6756,11.1908]]],[[[119.5987,11.1966],[119.6278,11.1868],[119.6253,11.1622],[119.6063,11.1506],[119.5956,11.1616],[119.594,11.1409],[119.5846,11.1471],[119.5622,11.1382],[119.5561,11.1732],[119.57,11.1811],[119.5898,11.1745],[119.5912,11.1918],[119.5987,11.1966]]],[[[119.6858,11.2065],[119.6873,11.2063],[119.6862,11.2058],[119.6858,11.2065]]]]}},{"type":"Feature","properties":{"ADM3_EN":"Kalayaan","ADM3_PCODE":"PH1705321","psgc_code":"1705321000","AREA_SQKM":0.399814398507},"geometry":{"type":"Polygon","coordinates":[[[114.2897,11.0524],[114.2821,11.0511],[114.2779,11.0507],[114.2897,11.0524]]]}},{"type":"Feature","properties":{"ADM3_EN":"Culion","ADM3_PCODE":"PH1705322","psgc_code":"1705322000","AREA_SQKM":432.200550995},"geometry":{"type":"MultiPolygon","coordinates":[[[[119.9357,11.9872],[119.9392,11.9952],[119.9629,11.9901],[119.9505,11.9832],[119.9357,11.9872]]],[[[119.9215,11.9911],[119.9235,11.9918],[119.9241,11.9909],[119.9215,11.9911]]],[[[119.9677,11.9908],[119.9647,11.9906],[119.9643,11.9919],[119.9677,11.9908]]],[[[119.9737,11.9828],[119.9808,11.9834],[119.9873,11.9772],[119.9821,11.9766],[119.9821,11.9803],[119.9737,11.9828]]],[[[119.9641,11.981],[119.9622,11.9829],[119.9645,11.9813],[119.9641,11.981]]],[[[119.8536,11.9752],[119.8303,11.9384],[119.8269,11.9399],[119.8228,11.9405],[119.8454,11.9802],[119.8786,11.9811],[119.8536,11.9752]]],[[[119.9426,11.9586],[119.9445,11.9697],[119.9393,11.9816],[119.9739,11.9678],[119.9527,11.9664],[119.9542,11.9561],[119.9426,11.9586]]],[[[119.9448,11.6586],[119.9438,11.6654],[119.9515,11.6644],[119.9531,11.6717],[119.9467,11.6804],[119.9398,11.6781],[119.9443,11.7034],[119.937,11.7113],[119.9396,11.7136],[119.9387,11.7305],[119.9478,11.7397],[119.9488,11.7233],[119.9529,11.7311],[119.9672,11.7289],[119.9712,11.7147],[119.9735,11.7127],[119.979,11.7135],[119.9773,11.7197],[119.9707,11.723],[119.9687,11.7321],[119.9538,11.7323],[119.9546,11.7433],[119.9725,11.7482],[119.9723,11.765],[119.9952,11.7697],[119.992,11.778],[119.9988,11.7806],[120.002,11.7833],[120.0034,11.7871],[119.9856,11.7848],[119.9927,11.7912],[119.989,11.8015],[119.9739,11.7903],[119.9635,11.8004],[119.9561,11.796],[119.9613,11.796],[119.9629,11.7645],[119.9303,11.7601],[119.9197,11.7851],[119.9069,11.7926],[119.9107,11.8083],[119.8936,11.829],[119.9041,11.8426],[119.9152,11.8441],[119.9003,11.8607],[119.8939,11.8621],[119.8913,11.8774],[119.8779,11.8805],[119.8684,11.9013],[119.8715,11.9281],[119.8606,11.9296],[119.846,11.9471],[119.8519,11.9562],[119.8571,11.9412],[119.8711,11.9461],[119.8801,11.9265],[119.8909,11.9236],[119.8926,11.9477],[119.8826,11.9582],[119.8742,11.9537],[119.8707,11.9626],[119.8862,11.9782],[119.8937,11.967],[119.9035,11.9795],[119.9211,11.957],[119.9663,11.9453],[119.9443,11.9417],[119.9555,11.9135],[119.9438,11.9115],[119.9523,11.9045],[119.9595,11.9008],[119.9652,11.9044],[119.9602,11.9269],[119.9636,11.9158],[119.9789,11.9168],[119.9711,11.9044],[119.9763,11.903],[119.9852,11.9102],[119.9793,11.9199],[119.9862,11.9275],[119.9988,11.9343],[120.0057,11.924],[120.0124,11.9339],[120.0296,11.9142],[120.0171,11.9149],[119.9875,11.8969],[119.993,11.892],[119.999,11.8923],[120.0044,11.8982],[120.0242,11.8933],[120.019,11.884],[120.0283,11.888],[120.0262,11.8813],[120.0426,11.8764],[120.0421,11.8624],[120.0505,11.8656],[120.0489,11.8756],[120.0565,11.873],[120.0536,11.8668],[120.075,11.8633],[120.0622,11.8515],[120.0492,11.8548],[120.0521,11.8454],[120.0364,11.8583],[120.0198,11.8408],[120.0337,11.8484],[120.0512,11.8397],[120.0296,11.8252],[120.0368,11.8202],[120.0301,11.8063],[120.0339,11.8026],[120.0426,11.8133],[120.0449,11.8051],[120.055,11.8056],[120.0737,11.7883],[120.0531,11.7804],[120.0347,11.7576],[120.0579,11.7563],[120.053,11.7517],[120.0515,11.7327],[120.0489,11.7354],[120.0447,11.7337],[120.0493,11.7184],[120.0373,11.7177],[120.0211,11.6978],[120.0063,11.6924],[120.0013,11.6761],[119.9881,11.6812],[119.9807,11.6666],[119.9694,11.6901],[119.9582,11.695],[119.9691,11.6649],[119.9654,11.6718],[119.9626,11.6623],[119.9448,11.6586]]],[[[119.9783,11.9791],[119.978,11.9774],[119.9756,11.9787],[119.9783,11.9791]]],[[[119.8637,11.9751],[119.8646,11.9748],[119.8635,11.9749],[119.8637,11.9751]]],[[[119.9918,11.9416],[119.9832,11.9466],[119.9881,11.9525],[119.9751,11.9564],[119.9902,11.9576],[119.9824,11.9619],[119.9913,11.9694],[120.0147,11.9559],[120.0214,11.959],[120.0228,11.9537],[120.0112,11.9508],[120.0103,11.9459],[120.0154,11.943],[119.9966,11.9494],[119.9918,11.9416]]],[[[119.8454,11.9622],[119.8455,11.9622],[119.8456,11.9621],[119.8454,11.9622]]],[[[119.8455,11.9618],[119.8454,11.962],[119.8456,11.962],[119.8455,11.9618]]],[[[119.9328,11.9601],[119.9306,11.9602],[119.9317,11.962],[119.9328,11.9601]]],[[[119.937,11.9612],[119.9375,11.9615],[119.9373,11.9609],[119.937,11.9612]]],[[[119.9374,11.9605],[119.9371,11.9607],[119.9373,11.9607],[119.9374,11.9605]]],[[[119.9592,11.958],[119.9591,11.9589],[119.96,11.958],[119.9592,11.958]]],[[[119.9423,11.9572],[119.9405,11.9566],[119.9403,11.9577],[119.9423,11.9572]]],[[[119.9705,11.9565],[119.9692,11.9551],[119.9685,11.9561],[119.9705,11.9565]]],[[[119.9781,11.9514],[119.9728,11.9511],[119.9729,11.9527],[119.9781,11.9514]]],[[[119.8659,11.9502],[119.8674,11.9501],[119.8662,11.9494],[119.8659,11.9502]]],[[[119.9817,11.9495],[119.9819,11.9487],[119.9811,11.9491],[119.9817,11.9495]]],[[[120.0164,11.946],[120.0164,11.9482],[120.0181,11.947],[120.0164,11.946]]],[[[120.0249,11.9463],[120.0263,11.9469],[120.0297,11.9462],[120.0326,11.9401],[120.0249,11.9463]]],[[[119.9741,11.9449],[119.9668,11.9481],[119.9749,11.9456],[119.9741,11.9449]]],[[[119.9973,11.9425],[120.0016,11.9381],[119.9949,11.941],[119.9973,11.9425]]],[[[119.9932,11.9407],[119.9904,11.9377],[119.9883,11.9413],[119.9932,11.9407]]],[[[119.8224,11.9391],[119.8215,11.9392],[119.8223,11.9396],[119.8224,11.9391]]],[[[120.0263,11.9355],[120.0235,11.9351],[120.0235,11.937],[120.0263,11.9355]]],[[[119.9749,11.9342],[119.9804,11.931],[119.9745,11.9304],[119.9749,11.9342]]],[[[120.0398,11.9334],[120.0389,11.934],[120.0398,11.9338],[120.0398,11.9334]]],[[[120.0319,11.9318],[120.0346,11.93],[120.0315,11.9312],[120.0319,11.9318]]],[[[120.0218,11.9308],[120.0199,11.9302],[120.019,11.9306],[120.0218,11.9308]]],[[[120.0239,11.9292],[120.0254,11.9266],[120.0224,11.9269],[120.0239,11.9292]]],[[[120.042,11.9152],[120.0408,11.9168],[120.0428,11.915],[120.042,11.9152]]],[[[120.0492,11.9152],[120.0482,11.9141],[120.0426,11.9154],[120.0492,11.9152]]],[[[120.0537,11.9105],[120.0532,11.9091],[120.0527,11.9098],[120.0537,11.9105]]],[[[119.9638,11.9048],[119.9647,11.9045],[119.9636,11.9046],[119.9638,11.9048]]],[[[119.998,11.8928],[119.998,11.8934],[119.9982,11.8933],[119.998,11.8928]]],[[[120.0921,11.8607],[120.0804,11.8593],[120.0748,11.8673],[120.0921,11.8607]]],[[[119.8969,11.861],[119.8964,11.8612],[119.897,11.8612],[119.8969,11.861]]],[[[120.1155,11.8117],[120.0791,11.8307],[120.0852,11.8346],[120.0703,11.8448],[120.0717,11.8515],[120.0815,11.8441],[120.0854,11.851],[120.0926,11.8453],[120.103,11.8457],[120.0965,11.8258],[120.1153,11.8286],[120.1107,11.8149],[120.1148,11.8138],[120.1154,11.813],[120.1155,11.8125],[120.1154,11.8122],[120.1155,11.812],[120.1155,11.8117]]],[[[120.0912,11.8486],[120.0913,11.8484],[120.0911,11.8484],[120.0912,11.8486]]],[[[120.1121,11.8422],[120.1143,11.8432],[120.115,11.8425],[120.1121,11.8422]]],[[[120.06,11.8364],[120.0592,11.8363],[120.0593,11.8366],[120.06,11.8364]]],[[[120.0786,11.8354],[120.0783,11.8356],[120.0783,11.8361],[120.0786,11.8354]]],[[[120.0552,11.8349],[120.0545,11.8349],[120.0547,11.8352],[120.0552,11.8349]]],[[[120.0584,11.8286],[120.0528,11.8311],[120.0537,11.8331],[120.0584,11.8286]]],[[[120.0605,11.8263],[120.0595,11.8271],[120.0612,11.827],[120.0605,11.8263]]],[[[120.0517,11.8248],[120.052,11.8267],[120.054,11.8255],[120.0517,11.8248]]],[[[120.0548,11.8252],[120.0555,11.8259],[120.0557,11.8253],[120.0548,11.8252]]],[[[120.0485,11.8236],[120.0467,11.8253],[120.0486,11.8258],[120.0485,11.8236]]],[[[120.1225,11.8072],[120.1237,11.7996],[120.1153,11.7978],[120.1147,11.8083],[120.1281,11.8145],[120.1281,11.8245],[120.1334,11.8119],[120.1225,11.8072]]],[[[120.0584,11.8226],[120.0594,11.8236],[120.0599,11.8233],[120.0584,11.8226]]],[[[120.0463,11.8211],[120.042,11.8219],[120.0467,11.8229],[120.0463,11.8211]]],[[[120.0721,11.8167],[120.0595,11.8145],[120.0571,11.8163],[120.0629,11.8218],[120.0721,11.8167]]],[[[120.1184,11.8163],[120.1236,11.8167],[120.1226,11.8143],[120.1184,11.8163]]],[[[120.0531,11.8114],[120.0488,11.8094],[120.0502,11.8139],[120.0531,11.8114]]],[[[120.0483,11.806],[120.0477,11.8067],[120.0488,11.8066],[120.0483,11.806]]],[[[120.0472,11.8058],[120.0471,11.8056],[120.0471,11.8061],[120.0472,11.8058]]],[[[119.9891,11.7965],[119.9884,11.7968],[119.9889,11.7971],[119.9891,11.7965]]],[[[119.9872,11.795],[119.986,11.7944],[119.9868,11.7954],[119.9872,11.795]]],[[[119.985,11.7946],[119.9845,11.795],[119.9851,11.7951],[119.985,11.7946]]],[[[120.1138,11.7904],[120.1156,11.7884],[120.1102,11.7873],[120.1138,11.7904]]],[[[119.9801,11.7935],[119.9802,11.7931],[119.98,11.7931],[119.9801,11.7935]]],[[[119.9693,11.7922],[119.9689,11.7928],[119.9693,11.7929],[119.9693,11.7922]]],[[[119.9911,11.7916],[119.9902,11.7919],[119.9909,11.792],[119.9911,11.7916]]],[[[119.9823,11.787],[119.9801,11.7889],[119.9829,11.788],[119.9823,11.787]]],[[[119.9728,11.7875],[119.9718,11.7881],[119.9728,11.7878],[119.9728,11.7875]]],[[[119.9779,11.7848],[119.9776,11.7847],[119.9778,11.7849],[119.9779,11.7848]]],[[[120.0011,11.7838],[120.0002,11.7842],[120.0007,11.7848],[120.0011,11.7838]]],[[[119.9853,11.7795],[119.9888,11.7825],[119.9906,11.78],[119.9853,11.7795]]],[[[119.9809,11.7806],[119.9793,11.7838],[119.9813,11.7839],[119.9809,11.7806]]],[[[119.978,11.7835],[119.9782,11.784],[119.9787,11.7837],[119.978,11.7835]]],[[[119.9996,11.7836],[119.9993,11.7838],[119.9995,11.7839],[119.9996,11.7836]]],[[[119.9772,11.783],[119.975,11.7829],[119.9748,11.7836],[119.9772,11.783]]],[[[119.9775,11.7836],[119.9774,11.7833],[119.9772,11.7834],[119.9775,11.7836]]],[[[119.9825,11.7821],[119.9821,11.781],[119.9817,11.7813],[119.9825,11.7821]]],[[[120.0843,11.7815],[120.0833,11.7793],[120.0829,11.7819],[120.0843,11.7815]]],[[[119.9752,11.7789],[119.9678,11.776],[119.9656,11.7798],[119.9752,11.7789]]],[[[119.9931,11.7798],[119.9936,11.7803],[119.9939,11.7797],[119.9931,11.7798]]],[[[119.9911,11.7745],[119.9906,11.7747],[119.9911,11.775],[119.9911,11.7745]]],[[[120.0574,11.763],[120.0566,11.7706],[120.0689,11.7743],[120.0701,11.7723],[120.0574,11.763]]],[[[119.9906,11.7742],[119.9897,11.7737],[119.9901,11.7744],[119.9906,11.7742]]],[[[119.9634,11.768],[119.9648,11.767],[119.9637,11.7666],[119.9634,11.768]]],[[[120.0859,11.7643],[120.084,11.7646],[120.0844,11.7654],[120.0859,11.7643]]],[[[119.9489,11.7427],[119.9567,11.7545],[119.9664,11.7544],[119.9489,11.7427]]],[[[119.9298,11.7237],[119.9239,11.7442],[119.9321,11.7479],[119.9376,11.7378],[119.9298,11.7237]]],[[[120.0545,11.7472],[120.0536,11.7473],[120.0543,11.7477],[120.0545,11.7472]]],[[[120.1005,11.7415],[120.1053,11.7255],[120.1,11.7206],[120.1005,11.7415]]],[[[119.9515,11.7363],[119.953,11.7383],[119.9519,11.735],[119.9515,11.7363]]],[[[119.9723,11.7168],[119.9757,11.7155],[119.972,11.7147],[119.9723,11.7168]]],[[[119.9389,11.7177],[119.9388,11.7174],[119.9387,11.7176],[119.9389,11.7177]]],[[[119.9376,11.7083],[119.9379,11.7082],[119.9377,11.708],[119.9376,11.7083]]],[[[120.0474,11.6818],[120.0467,11.6746],[120.0421,11.6738],[120.0388,11.6709],[120.0418,11.6812],[120.0373,11.687],[120.0474,11.6818]]],[[[120.0208,11.6856],[120.0181,11.6871],[120.0212,11.6875],[120.0208,11.6856]]],[[[120.04,11.6785],[120.039,11.6786],[120.0392,11.6789],[120.04,11.6785]]],[[[120.041,11.6721],[120.0409,11.6724],[120.0412,11.6723],[120.041,11.6721]]],[[[119.9652,11.6705],[119.9651,11.6707],[119.9655,11.6708],[119.9652,11.6705]]],[[[119.9657,11.6707],[119.9658,11.6708],[119.9657,11.6705],[119.9657,11.6707]]],[[[119.9656,11.6702],[119.9658,11.6703],[119.9658,11.6701],[119.9656,11.6702]]],[[[119.9603,11.6605],[119.9625,11.6606],[119.9618,11.6583],[119.9603,11.6605]]],[[[119.9444,11.6586],[119.9442,11.6581],[119.9442,11.6585],[119.9444,11.6586]]]]}},{"type":"Feature","properties":{"ADM3_EN":"Rizal (Marcos)","ADM3_PCODE":"PH1705323","psgc_code":"1705323000","AREA_SQKM":1271.26833501},"geometry":{"type":"Polygon","coordinates":[[[117.8605,8.9955],[117.7597,8.9183],[117.683,8.8064],[117.5395,8.7262],[117.5119,8.6877],[117.4191,8.6488],[117.2615,8.5017],[117.2117,8.4874],[117.2246,8.5121],[117.218,8.5223],[117.2412,8.542],[117.2345,8.5498],[117.2435,8.5591],[117.2376,8.5681],[117.2476,8.5649],[117.2649,8.5799],[117.255,8.6094],[117.2613,8.6141],[117.2672,8.5972],[117.2734,8.6007],[117.2755,8.6253],[117.2953,8.6561],[117.301,8.6535],[117.311,8.6687],[117.333,8.6725],[117.3298,8.6838],[117.3451,8.6984],[117.3256,8.6924],[117.3225,8.6957],[117.3462,8.7127],[117.347,8.7287],[117.3629,8.7386],[117.3592,8.7448],[117.4247,8.7584],[117.4319,8.7703],[117.4193,8.7859],[117.4318,8.8024],[117.438,8.7986],[117.4408,8.8071],[117.4562,8.8109],[117.4673,8.855],[117.4756,8.8524],[117.4928,8.8727],[117.4911,8.8887],[117.508,8.8958],[117.5169,8.916],[117.5293,8.9212],[117.5302,8.933],[117.5438,8.9346],[117.5479,8.9571],[117.5779,8.959],[117.6213,8.9992],[117.6215,9.0303],[117.6306,9.0351],[117.6299,9.0483],[117.64,9.0483],[117.6636,9.0739],[117.6872,9.0731],[117.6895,9.089],[117.7105,9.0607],[117.7239,9.0713],[117.7328,9.063],[117.7408,9.0718],[117.7463,9.0678],[117.7587,9.0905],[117.7536,9.1082],[117.7587,9.1117],[117.8605,8.9955]]]}},{"type":"Feature","properties":{"ADM3_EN":"Sofronio Española","ADM3_PCODE":"PH1705324","psgc_code":"1705324000","AREA_SQKM":442.042202558},"geometry":{"type":"MultiPolygon","coordinates":[[[[118.1296,9.148],[118.1044,9.1027],[118.1023,9.0515],[118.0956,9.0448],[118.0888,9.0535],[118.0683,9.0483],[118.0855,9.0312],[118.0809,9.0144],[118.059,9.0095],[118.0674,8.997],[118.0559,8.9964],[118.0604,8.9859],[118.0465,8.9714],[118.0428,8.9494],[118.0306,8.9463],[118.0161,8.9053],[118.0029,8.9035],[117.9934,8.9148],[117.9947,8.93],[117.9754,8.9416],[117.9647,8.9377],[117.9714,8.9483],[117.9692,8.9889],[117.9481,8.9934],[117.9371,8.9881],[117.9007,9.0125],[117.9233,9.0923],[117.9492,9.1288],[118.0078,9.1787],[118.0645,9.189],[118.1296,9.148]]],[[[118.1343,9.1026],[118.1306,9.1011],[118.1297,9.1026],[118.1343,9.1026]]],[[[118.1308,9.0921],[118.1215,9.0942],[118.1265,9.097],[118.1308,9.0921]]],[[[118.1601,9.0877],[118.1564,9.0846],[118.1545,9.0887],[118.1601,9.0877]]],[[[118.1437,9.066],[118.1362,9.0602],[118.1356,9.0604],[118.1346,9.0611],[118.1336,9.0676],[118.1386,9.0703],[118.1433,9.0671],[118.1437,9.066]]],[[[118.1201,9.05],[118.1163,9.0442],[118.1164,9.0482],[118.1201,9.05]]],[[[118.12,9.0444],[118.1211,9.049],[118.1215,9.0482],[118.1214,9.0463],[118.12,9.0444]]],[[[118.1184,9.0417],[118.1176,9.0426],[118.1187,9.0428],[118.1184,9.0417]]]]}}]}